region,district,type,name,latitude,longitude,is_district_shown
Краснодарский край,Муниципальное образование город Краснодар,посёлок,Белозёрный,45.06944,38.72083,True
Краснодарский край,Муниципальное образование город Краснодар,посёлок,Берёзовый,45.15,38.9925,True
Краснодарский край,Муниципальное образование город Краснодар,хутор,Восточный,45.18583,38.77417,True
Краснодарский край,Муниципальное образование город Краснодар,посёлок,Дорожный,45.1175,39.35278,True
Краснодарский край,Муниципальное образование город Краснодар,посёлок,Дружелюбный,45.12472,39.16167,True
Краснодарский край,Муниципальное образование город Краснодар,станица,Елизаветинская,45.04806,38.79278,True
Краснодарский край,Муниципальное образование город Краснодар,посёлок,Зеленопольский,45.12194,39.17472,True
Краснодарский край,Муниципальное образование город Краснодар,посёлок,Знаменский,45.05333,39.14111,True
Краснодарский край,Муниципальное образование город Краснодар,посёлок,Индустриальный,45.09444,39.11139,True
Краснодарский край,Муниципальное образование город Краснодар,посёлок,Колосистый,45.135,38.90472,True
Краснодарский край,Муниципальное образование город Краснодар,хутор,Копанской,45.17056,38.80333,True
Краснодарский край,Муниципальное образование город Краснодар,город,Краснодар,45.03333,38.98333,False
Краснодарский край,Муниципальное образование город Краснодар,посёлок,Краснодарский,45.08611,39.04417,True
Краснодарский край,Муниципальное образование город Краснодар,посёлок,Краснолит,45.15194,38.84111,True
Краснодарский край,Муниципальное образование город Краснодар,посёлок,Лазурный,45.14389,39.08722,True
Краснодарский край,Муниципальное образование город Краснодар,хутор,Ленина,45.02333,39.21944,True
Краснодарский край,Муниципальное образование город Краснодар,посёлок,Лорис,45.0875,39.12111,True
Краснодарский край,Муниципальное образование город Краснодар,хутор,Новый,45.16083,38.80472,True
Краснодарский край,Муниципальное образование город Краснодар,хутор,Октябрьский,45.17861,39.09083,True
Краснодарский край,Муниципальное образование город Краснодар,посёлок,отделения № 2 СКЗНИИСиВ,45.15222,38.93556,True
Краснодарский край,Муниципальное образование город Краснодар,посёлок,отделения № 3 ОПХ КНИИСХ,45.11389,38.91222,True
Краснодарский край,Муниципальное образование город Краснодар,посёлок,отделения № 3 СКЗНИИСиВ,45.13278,38.96722,True
Краснодарский край,Муниципальное образование город Краснодар,посёлок,отделения № 4 совхоза «Пашковский»,45.01389,39.13361,True
Краснодарский край,Муниципальное образование город Краснодар,посёлок,Плодородный,45.05833,39.05111,True
Краснодарский край,Муниципальное образование город Краснодар,посёлок,Победитель,45.12306,39.09861,True
Краснодарский край,Муниципальное образование город Краснодар,посёлок,Пригородный,45.07361,39.19472,True
Краснодарский край,Муниципальное образование город Краснодар,посёлок,Разъезд,45.07333,39.2575,True
Краснодарский край,Муниципальное образование город Краснодар,посёлок,Российский,45.1142,39.0378,True
Краснодарский край,Муниципальное образование город Краснодар,станица,Старокорсунская,45.05306,39.31583,True
Краснодарский край,Муниципальное образование город Краснодар,хутор,Черников,45.18528,38.8375,True
Краснодарский край,Анапа (город краевого подчинения),город,Анапа,44.893857,37.317481,False
Краснодарский край,Анапа (город краевого подчинения),станица,Благовещенская,45.05417,37.12778,True
Краснодарский край,Анапа (город краевого подчинения),село,Витязево,44.984144,37.262859,True
Краснодарский край,Анапа (город краевого подчинения),хутор,Чембурка,44.92917,37.34611,True
Краснодарский край,Муниципальное образование город Армавир,город,Армавир,44.99464,41.12946,False
Краснодарский край,Муниципальное образование город Армавир,посёлок,Заветный,44.93333,41.13611,True
Краснодарский край,Муниципальное образование город Армавир,хутор,Зуево,44.798301,41.187343,True
Краснодарский край,Муниципальное образование город Армавир,хутор,Красин,44.863752,41.161633,True
Краснодарский край,Муниципальное образование город Армавир,хутор,Красная Поляна,45.05444,41.10139,True
Краснодарский край,Муниципальное образование город Армавир,посёлок,Маяк,45.031961,40.941213,True
Краснодарский край,Муниципальное образование город Армавир,хутор,Первомайский,44.8375,41.16222,True
Краснодарский край,Муниципальное образование город Армавир,станица,Старая Станица,45.0125,41.14944,True
Краснодарский край,Муниципальное образование город Армавир,посёлок,Учебный,44.976127,41.043828,True
Краснодарский край,Муниципальное образование город Армавир,посёлок,центральной усадьбы опытной станции ВНИИМК,44.988451,41.00405,True
Краснодарский край,Муниципальное образование город Армавир,посёлок,центральной усадьбы совхоза «Восток»,45.006781,41.041366,True
Краснодарский край,Муниципальное образование город Армавир,посёлок,центральной усадьбы совхоза «Юбилейный»,45.022692,41.12385,True
Краснодарский край,Муниципальное образование город Армавир,посёлок,Южный,45.022055,41.008686,True
Краснодарский край,Белореченск (город краевого подчинения),город,Белореченск,44.76667,39.86667,False
Краснодарский край,Белореченск (город краевого подчинения),посёлок,Заречный,44.74944,39.8325,True
Краснодарский край,Белореченск (город краевого подчинения),посёлок,Новый,44.72444,39.82472,True
Краснодарский край,Белореченск (город краевого подчинения),посёлок,Южный,44.729758,39.853802,True
Краснодарский край,Муниципальное образование город-курорт Геленджик,село,Адербиевка,44.60222,38.11667,True
Краснодарский край,Муниципальное образование город-курорт Геленджик,село,Архипо-Осиповка,44.366077,38.534211,True
Краснодарский край,Муниципальное образование город-курорт Геленджик,хутор,Афонка,44.73333,37.925,True
Краснодарский край,Муниципальное образование город-курорт Геленджик,село,Береговое,44.418892,38.360875,True
Краснодарский край,Муниципальное образование город-курорт Геленджик,хутор,Бетта,44.374911,38.396375,True
Краснодарский край,Муниципальное образование город-курорт Геленджик,село,Виноградное,44.6375,38.00278,True
Краснодарский край,Муниципальное образование город-курорт Геленджик,село,Возрождение,44.55,38.21472,True
Краснодарский край,Муниципальное образование город-курорт Геленджик,город,Геленджик,44.560999,38.076949,False
Краснодарский край,Муниципальное образование город-курорт Геленджик,хутор,Джанхот,44.46452,38.15627,True
Краснодарский край,Муниципальное образование город-курорт Геленджик,село,Дивноморское,44.50083,38.13528,True
Краснодарский край,Муниципальное образование город-курорт Геленджик,село,Кабардинка,44.651384,37.938355,True
Краснодарский край,Муниципальное образование город-курорт Геленджик,село,Криница,44.385248,38.344288,True
Краснодарский край,Муниципальное образование город-курорт Геленджик,село,Марьина Роща,44.61861,38.02861,True
Краснодарский край,Муниципальное образование город-курорт Геленджик,село,Михайловский Перевал,44.51111,38.32139,True
Краснодарский край,Муниципальное образование город-курорт Геленджик,село,Прасковеевка,44.45083,38.21139,True
Краснодарский край,Муниципальное образование город-курорт Геленджик,село,Пшада,44.47222,38.39722,True
Краснодарский край,Муниципальное образование город-курорт Геленджик,посёлок,Светлый,44.54861,38.1425,True
Краснодарский край,Муниципальное образование город-курорт Геленджик,село,Текос,44.43889,38.46861,True
Краснодарский край,Муниципальное образование город-курорт Геленджик,село,Тешебс,44.37222,38.58889,True
Краснодарский край,Муниципальное образование город-курорт Геленджик,хутор,Широкая Пшадская Щель,44.49333,38.35222,True
Краснодарский край,Муниципальное образование город-курорт Геленджик,хутор,Широкая Щель,44.56861,38.17361,True
Краснодарский край,Муниципальное образование город Горячий Ключ,станица,Бакинская,44.75,39.28333,True
Краснодарский край,Муниципальное образование город Горячий Ключ,село,Безымянное,44.54983,39.1272,True
Краснодарский край,Муниципальное образование город Горячий Ключ,хутор,Весёлый,44.503117,39.353917,True
Краснодарский край,Муниципальное образование город Горячий Ключ,город,Горячий Ключ,44.633284,39.133287,False
Краснодарский край,Муниципальное образование город Горячий Ключ,хутор,Домики,44.489332,39.393003,True
Краснодарский край,Муниципальное образование город Горячий Ключ,станица,Имеретинская,44.68333,39.43333,True
Краснодарский край,Муниципальное образование город Горячий Ключ,хутор,Красный Восток,44.797693,39.464571,True
Краснодарский край,Муниципальное образование город Горячий Ключ,посёлок,Кура-Промысел,44.496006,39.372368,True
Краснодарский край,Муниципальное образование город Горячий Ключ,посёлок,Кура-Транспортный,44.50278,39.3625,True
Краснодарский край,Муниципальное образование город Горячий Ключ,хутор,Кура-Цеце,44.48556,39.33611,True
Краснодарский край,Муниципальное образование город Горячий Ключ,посёлок,Кутаис,44.51444,39.29667,True
Краснодарский край,Муниципальное образование город Горячий Ключ,станица,Кутаисская,44.64667,39.31222,True
Краснодарский край,Муниципальное образование город Горячий Ключ,станица,Мартанская,44.75917,39.43444,True
Краснодарский край,Муниципальное образование город Горячий Ключ,посёлок,Мирный,44.604983,39.001122,True
Краснодарский край,Муниципальное образование город Горячий Ключ,хутор,Молькин,44.80417,39.23556,True
Краснодарский край,Муниципальное образование город Горячий Ключ,посёлок,Октябрьский,44.55572,39.211651,True
Краснодарский край,Муниципальное образование город Горячий Ключ,хутор,Папоротный,44.691253,39.019798,True
Краснодарский край,Муниципальное образование город Горячий Ключ,посёлок,Первомайский,44.69167,39.30278,True
Краснодарский край,Муниципальное образование город Горячий Ключ,посёлок,Приреченский,44.750099,39.240837,True
Краснодарский край,Муниципальное образование город Горячий Ключ,посёлок,Промысловый,44.557435,39.30221,True
Краснодарский край,Муниципальное образование город Горячий Ключ,станица,Пятигорская,44.60611,39.03028,True
Краснодарский край,Муниципальное образование город Горячий Ключ,станица,Саратовская,44.70833,39.21667,True
Краснодарский край,Муниципальное образование город Горячий Ключ,хутор,Северный,44.82667,39.21306,True
Краснодарский край,Муниципальное образование город Горячий Ключ,хутор,Солёный,44.694297,39.265217,True
Краснодарский край,Муниципальное образование город Горячий Ключ,хутор,Сорокин,44.736776,39.234576,True
Краснодарский край,Муниципальное образование город Горячий Ключ,станица,Суздальская,44.76278,39.37,True
Краснодарский край,Муниципальное образование город Горячий Ключ,посёлок,Транспортный,44.546624,39.289912,True
Краснодарский край,Муниципальное образование город Горячий Ключ,село,Фанагорийское,44.51389,39.11028,True
Краснодарский край,Муниципальное образование город Горячий Ключ,село,Хребтовое,44.54306,38.96056,True
Краснодарский край,Муниципальное образование город Горячий Ключ,станица,Черноморская,44.70333,39.36389,True
Краснодарский край,Муниципальное образование город Горячий Ключ,посёлок,Широкая Балка,44.48593,39.413772,True
Краснодарский край,Ейское городское поселение,посёлок,Береговой,46.6625,38.11222,True
Краснодарский край,Ейское городское поселение,посёлок,Ближнеейский,46.66667,38.25417,True
Краснодарский край,Ейское городское поселение,посёлок,Большелугский,46.61667,38.24528,True
Краснодарский край,Ейское городское поселение,город,Ейск,46.71056,38.27778,False
Краснодарский край,Ейское городское поселение,посёлок,Краснофлотский,46.64611,38.26333,True
Краснодарский край,Ейское городское поселение,посёлок,Морской,46.69083,38.20444,True
Краснодарский край,Ейское городское поселение,посёлок,Подбельский,46.6425,38.28917,True
Краснодарский край,Ейское городское поселение,посёлок,Широчанка,46.65833,38.33056,True
Краснодарский край,Кропоткин (город),город,Кропоткин,45.43333,40.56667,False
Краснодарский край,Крымск,город,Крымск,44.93333,38,False
Краснодарский край,Лабинское городское поселение,хутор,Заря Мира,44.57889,40.77472,True
Краснодарский край,Лабинское городское поселение,город,Лабинск,44.633338,40.733311,False
Краснодарский край,Лабинское городское поселение,посёлок,Прохладный,44.71222,40.70083,True
Краснодарский край,Муниципальное образование город Новороссийск,село,Абрау-Дюрсо,44.70278,37.60194,True
Краснодарский край,Муниципальное образование город Новороссийск,село,Большие Хутора,44.74861,37.6025,True
Краснодарский край,Муниципальное образование город Новороссийск,село,Борисовка,44.76,37.69889,True
Краснодарский край,Муниципальное образование город Новороссийск,село,Васильевка,44.73194,37.66694,True
Краснодарский край,Муниципальное образование город Новороссийск,посёлок,Верхнебаканский,44.84139,37.66194,True
Краснодарский край,Муниципальное образование город Новороссийск,село,Владимировка,44.78972,37.67444,True
Краснодарский край,Муниципальное образование город Новороссийск,село,Гайдук,44.78361,37.69917,True
Краснодарский край,Муниципальное образование город Новороссийск,село,Глебовское,44.71028,37.64222,True
Краснодарский край,Муниципальное образование город Новороссийск,хутор,Горный,44.86694,37.74667,True
Краснодарский край,Муниципальное образование город Новороссийск,хутор,Дюрсо,44.68534,37.564205,True
Краснодарский край,Муниципальное образование город Новороссийск,хутор,Камчатка,44.70694,37.63028,True
Краснодарский край,Муниципальное образование город Новороссийск,село,Кирилловка,44.77056,37.72917,True
Краснодарский край,Муниципальное образование город Новороссийск,хутор,Ленинский Путь,44.86306,37.62667,True
Краснодарский край,Муниципальное образование город Новороссийск,посёлок,Лесничество Абрау-Дюрсо,44.725,37.55889,True
Краснодарский край,Муниципальное образование город Новороссийск,село,Мысхако,44.65917,37.76306,True
Краснодарский край,Муниципальное образование город Новороссийск,станица,Натухаевская,44.90583,37.56944,True
Краснодарский край,Муниципальное образование город Новороссийск,город,Новороссийск,44.71667,37.76667,False
Краснодарский край,Муниципальное образование город Новороссийск,хутор,Победа,44.88528,37.54083,True
Краснодарский край,Муниципальное образование город Новороссийск,станица,Раевская,44.83861,37.55472,True
Краснодарский край,Муниципальное образование город Новороссийск,село,Северная Озереевка,44.69667,37.63167,True
Краснодарский край,Муниципальное образование город Новороссийск,хутор,Семигорский,44.88139,37.60667,True
Краснодарский край,Муниципальное образование город Новороссийск,хутор,Убых,44.81667,37.63528,True
Краснодарский край,Муниципальное образование город Новороссийск,село,Федотовка,44.67528,37.71111,True
Краснодарский край,Муниципальное образование город Новороссийск,село,Широкая Балка,44.65361,37.70056,True
Краснодарский край,Муниципальное образование город Новороссийск,село,Южная Озереевка,44.67472,37.6325,True
Краснодарский край,Славянск-на-Кубани,город,Славянск-на-Кубани,45.25861,38.12472,False
Краснодарский край,Муниципальное образование город-курорт Сочи,село,Аибга,43.58611,40.19861,True
Краснодарский край,Муниципальное образование город-курорт Сочи,село,Алексеевское,43.94306,39.38944,True
Краснодарский край,Муниципальное образование город-курорт Сочи,село,Альтмец,43.721375,39.671004,True
Краснодарский край,Муниципальное образование город-курорт Сочи,село,Ахштырь,43.51056,40.00167,True
Краснодарский край,Муниципальное образование город-курорт Сочи,село,Барановка,43.709881,39.686811,True
Краснодарский край,Муниципальное образование город-курорт Сочи,село,Барановка,43.64528,39.74611,True
Краснодарский край,Муниципальное образование город-курорт Сочи,село,Беранда,43.77056,39.52472,True
Краснодарский край,Муниципальное образование город-курорт Сочи,село,Бестужевское,43.4825,39.945,True
Краснодарский край,Муниципальное образование город-курорт Сочи,село,Бзогу,43.81583,39.71361,True
Краснодарский край,Муниципальное образование город-курорт Сочи,село,Богушёвка,43.59917,39.77722,True
Краснодарский край,Муниципальное образование город-курорт Сочи,аул,Большой Кичмай,43.83472,39.51056,True
Краснодарский край,Муниципальное образование город-курорт Сочи,село,Варваровка,43.692611,39.700667,True
Краснодарский край,Муниципальное образование город-курорт Сочи,село,Вардане-Верино,43.499091,39.942906,True
Краснодарский край,Муниципальное образование город-курорт Сочи,село,Васильевка,43.663337,39.71636,True
Краснодарский край,Муниципальное образование город-курорт Сочи,село,Верхнеармянская Хобза,43.746179,39.600603,True
Краснодарский край,Муниципальное образование город-курорт Сочи,село,Верхнеармянское Лоо,43.73694,39.61833,True
Краснодарский край,Муниципальное образование город-курорт Сочи,село,Верхневеселое,43.433701,39.970449,True
Краснодарский край,Муниципальное образование город-курорт Сочи,село,Верхнее Буу,43.757848,39.55743,True
Краснодарский край,Муниципальное образование город-курорт Сочи,село,Верхнее Учдере,43.700517,39.638171,True
Краснодарский край,Муниципальное образование город-курорт Сочи,село,Верхнениколаевское,43.515444,39.934507,True
Краснодарский край,Муниципальное образование город-курорт Сочи,село,Верхнерусское Лоо,43.7725,39.65111,True
Краснодарский край,Муниципальное образование город-курорт Сочи,село,Верхнеякорная Щель,43.77972,39.51361,True
Краснодарский край,Муниципальное образование город-курорт Сочи,село,Верхний Юрт,43.63083,39.77639,True
Краснодарский край,Муниципальное образование город-курорт Сочи,село,Верховское,43.624731,39.815534,True
Краснодарский край,Муниципальное образование город-курорт Сочи,село,Весёлое,43.41861,40.0025,True
Краснодарский край,Муниципальное образование город-курорт Сочи,село,Волковка,43.6875,39.66,True
Краснодарский край,Муниципальное образование город-курорт Сочи,село,Волконка,43.86028,39.40083,True
Краснодарский край,Муниципальное образование город-курорт Сочи,село,Воронцовка,43.620417,39.91805,True
Краснодарский край,Муниципальное образование город-курорт Сочи,село,Высокое,43.46722,39.96917,True
Краснодарский край,Муниципальное образование город-курорт Сочи,село,Галицыно,43.54306,39.97472,True
Краснодарский край,Муниципальное образование город-курорт Сочи,село,Горное Лоо,43.7175,39.60611,True
Краснодарский край,Муниципальное образование город-курорт Сочи,пгт,Дагомыс,43.661295,39.654705,True
Краснодарский край,Муниципальное образование город-курорт Сочи,село,Детляжка,43.760993,39.535592,True
Краснодарский край,Муниципальное образование город-курорт Сочи,посёлок,Дубравный,43.51596,39.891981,True
Краснодарский край,Муниципальное образование город-курорт Сочи,село,Ермоловка,43.50389,40.05,True
Краснодарский край,Муниципальное образование город-курорт Сочи,село,Зубова Щель,43.83861,39.43944,True
Краснодарский край,Муниципальное образование город-курорт Сочи,село,Измайловка,43.632244,39.824214,True
Краснодарский край,Муниципальное образование город-курорт Сочи,село,Илларионовка,43.59588,39.893795,True
Краснодарский край,Муниципальное образование город-курорт Сочи,село,Казачий Брод,43.51806,39.98917,True
Краснодарский край,Муниципальное образование город-курорт Сочи,аул,Калеж,44.00917,39.35806,True
Краснодарский край,Муниципальное образование город-курорт Сочи,село,Калиновое Озеро,43.616325,39.886061,True
Краснодарский край,Муниципальное образование город-курорт Сочи,село,Каткова Щель,43.85861,39.41583,True
Краснодарский край,Муниципальное образование город-курорт Сочи,село,Каштаны,43.524478,39.901018,True
Краснодарский край,Муниципальное образование город-курорт Сочи,село,Кепша,43.616651,40.048917,True
Краснодарский край,Муниципальное образование город-курорт Сочи,село,Краевско-Армянское,43.60917,39.80917,True
Краснодарский край,Муниципальное образование город-курорт Сочи,село,Красная Воля,43.560523,39.917188,True
Краснодарский край,Муниципальное образование город-курорт Сочи,пгт,Красная Поляна,43.679095,40.205537,True
Краснодарский край,Муниципальное образование город-курорт Сочи,село,Лесное,43.57389,39.97333,True
Краснодарский край,Муниципальное образование город-курорт Сочи,село,Липники,43.503564,39.969137,True
Краснодарский край,Муниципальное образование город-курорт Сочи,аул,Лыготх,44.00389,39.36528,True
Краснодарский край,Муниципальное образование город-курорт Сочи,аул,Малый Кичмай,43.82139,39.5,True
Краснодарский край,Муниципальное образование город-курорт Сочи,село,Мамедова Щель,43.95877,39.325281,True
Краснодарский край,Муниципальное образование город-курорт Сочи,село,Марьино,43.93889,39.47972,True
Краснодарский край,Муниципальное образование город-курорт Сочи,село,Медовеевка,43.678204,40.085262,True
Краснодарский край,Муниципальное образование город-курорт Сочи,село,Молдовка,43.45694,39.95806,True
Краснодарский край,Муниципальное образование город-курорт Сочи,село,Монастырь,43.59167,40.005,True
Краснодарский край,Муниципальное образование город-курорт Сочи,аул,Наджиго,44.05,39.2625,True
Краснодарский край,Муниципальное образование город-курорт Сочи,село,Нижнее Учдере,43.686829,39.616099,True
Краснодарский край,Муниципальное образование город-курорт Сочи,село,Нижняя Шиловка,43.44583,40.02306,True
Краснодарский край,Муниципальное образование город-курорт Сочи,село,Ордынка,43.687468,39.687479,True
Краснодарский край,Муниципальное образование город-курорт Сочи,село,Орёл-Изумруд,43.467334,39.925506,True
Краснодарский край,Муниципальное образование город-курорт Сочи,село,Отрадное,43.81306,39.61056,True
Краснодарский край,Муниципальное образование город-курорт Сочи,село,Пластунка,43.66861,39.76222,True
Краснодарский край,Муниципальное образование город-курорт Сочи,село,Прогресс,43.5924,39.832773,True
Краснодарский край,Муниципальное образование город-курорт Сочи,село,Разбитый Котел,43.685447,39.72873,True
Краснодарский край,Муниципальное образование город-курорт Сочи,село,Раздольное,43.59111,39.76778,True
Краснодарский край,Муниципальное образование город-курорт Сочи,село,Русская Мамайка,43.648303,39.717609,True
Краснодарский край,Муниципальное образование город-курорт Сочи,село,Семёновка,43.641884,39.85019,True
Краснодарский край,Муниципальное образование город-курорт Сочи,село,Сергей-Поле,43.66417,39.69639,True
Краснодарский край,Муниципальное образование город-курорт Сочи,село,Солохаул,43.79917,39.67667,True
Краснодарский край,Муниципальное образование город-курорт Сочи,город,Сочи,43.58528,39.72028,False
Краснодарский край,Муниципальное образование город-курорт Сочи,село,Татьяновка,43.96028,39.41056,True
Краснодарский край,Муниципальное образование город-курорт Сочи,село,Третья Рота,43.74333,39.68056,True
Краснодарский край,Муниципальное образование город-курорт Сочи,аул,Тхагапш,43.968999,39.446377,True
Краснодарский край,Муниципальное образование город-курорт Сочи,аул,Хаджико,44.007033,39.334711,True
Краснодарский край,Муниципальное образование город-курорт Сочи,село,Харциз Второй,43.80056,39.61361,True
Краснодарский край,Муниципальное образование город-курорт Сочи,село,Харциз Первый,43.795288,39.641477,True
Краснодарский край,Муниципальное образование город-курорт Сочи,село,Хлебороб,43.562411,39.884866,True
Краснодарский край,Муниципальное образование город-курорт Сочи,село,Чвижепсе,43.63139,40.08639,True
Краснодарский край,Муниципальное образование город-курорт Сочи,село,Черешня,43.449162,39.985226,True
Краснодарский край,Муниципальное образование город-курорт Сочи,село,Четвёртая Рота,43.74639,39.73583,True
Краснодарский край,Муниципальное образование город-курорт Сочи,село,Эстосадок,43.684845,40.260995,True
Краснодарский край,Тихорецкое городское поселение,посёлок,Каменный,45.86194,40.02861,True
Краснодарский край,Тихорецкое городское поселение,посёлок ж.д. разъезда,Тихонький,45.910275,40.0264278,True
Краснодарский край,Тихорецкое городское поселение,город,Тихорецк,45.85,40.11667,False
Краснодарский край,Туапсе,город,Туапсе,44.100016,39.083223,False
Краснодарский край,Сириус (посёлок городского типа),пгт,Сириус,43.407976,39.958937,False
Краснодарский край,Абинский район,город,Абинск,44.86667,38.16667,True
Краснодарский край,Абинский район,хутор,Аушед,45.05,38.39583,True
Краснодарский край,Абинский район,пгт,Ахтырский,44.83333,38.28333,True
Краснодарский край,Абинский район,хутор,Бережной,44.91167,38.12667,True
Краснодарский край,Абинский район,хутор,Богдасаров,45.15389,38.32972,True
Краснодарский край,Абинский район,село,Варнавинское,44.992324,38.19691,True
Краснодарский край,Абинский район,хутор,Васильевский,45.09083,38.53278,True
Краснодарский край,Абинский район,хутор,Воробьёв,44.95389,38.45278,True
Краснодарский край,Абинский район,хутор,Екатериновский,45.09083,38.49111,True
Краснодарский край,Абинский район,хутор,Коробкин,44.93833,38.25306,True
Краснодарский край,Абинский район,хутор,Косовичи,45.09028,38.56361,True
Краснодарский край,Абинский район,хутор,Кравченко,44.93056,38.49528,True
Краснодарский край,Абинский район,хутор,Краснооктябрьский,44.93194,38.37111,True
Краснодарский край,Абинский район,хутор,Ленинский,45.17194,38.23889,True
Краснодарский край,Абинский район,станица,Мингрельская,45.01611,38.33667,True
Краснодарский край,Абинский район,хутор,Нечаевский,45.16222,38.29889,True
Краснодарский край,Абинский район,посёлок,Новосадовый,44.58472,38.40722,True
Краснодарский край,Абинский район,посёлок,Новый,44.72444,38.3275,True
Краснодарский край,Абинский район,хутор,Ольгинский,45.12472,38.36306,True
Краснодарский край,Абинский район,хутор,Первомайский,44.93306,38.44833,True
Краснодарский край,Абинский район,хутор,Покровский,45.10917,38.41833,True
Краснодарский край,Абинский район,посёлок,Пролетарий,44.88083,38.26028,True
Краснодарский край,Абинский район,хутор,Садовый,45.04083,38.23417,True
Краснодарский край,Абинский район,хутор,Свердловский,45.07306,38.5275,True
Краснодарский край,Абинский район,село,Светлогорское,44.83722,38.21778,True
Краснодарский край,Абинский район,хутор,Свободный,45.12111,38.39361,True
Краснодарский край,Абинский район,посёлок,Синегорск,44.77333,38.34583,True
Краснодарский край,Абинский район,посёлок,Сосновая Роща,44.71833,38.35278,True
Краснодарский край,Абинский район,станица,Фёдоровская,45.08333,38.46667,True
Краснодарский край,Абинский район,хутор,Хабль,44.92917,38.31167,True
Краснодарский край,Абинский район,станица,Холмская,44.85,38.38333,True
Краснодарский край,Абинский район,станица,Шапсугская,44.75389,38.08222,True
Краснодарский край,Абинский район,хутор,Эрастов,44.94389,38.49778,True
Краснодарский край,Абинский район,станица,Эриванская,44.7225,38.18833,True
Краснодарский край,Абинский район,хутор,Эриванский,44.79222,38.20694,True
Краснодарский край,Анапский район,станица,Анапская,44.9,37.36667,True
Краснодарский край,Анапский район,хутор,Большой Разнокол,45.148607,37.45937,True
Краснодарский край,Анапский район,село,Большой Утриш,44.76222,37.39,True
Краснодарский край,Анапский район,село,Бужор,44.85648,37.4117,True
Краснодарский край,Анапский район,село,Варваровка,44.84083,37.38639,True
Краснодарский край,Анапский район,посёлок,Верхнее Джемете,44.952031,37.324719,True
Краснодарский край,Анапский район,хутор,Верхний Ханчакрак,45.102482,37.409397,True
Краснодарский край,Анапский район,хутор,Верхний Чекон,45.073795,37.53349,True
Краснодарский край,Анапский район,хутор,Весёлая Гора,45.100833333333,37.477777777778,True
Краснодарский край,Анапский район,хутор,Вестник,45.09944,37.45611,True
Краснодарский край,Анапский район,посёлок,Виноградный,45.05639,37.32056,True
Краснодарский край,Анапский район,хутор,Воскресенский,44.965982,37.322216,True
Краснодарский край,Анапский район,село,Гай-Кодзор,44.85389,37.43722,True
Краснодарский край,Анапский район,станица,Гостагаевская,45.02417,37.50194,True
Краснодарский край,Анапский район,село,Джигинка,45.13333,37.33333,True
Краснодарский край,Анапский район,хутор,Заря,44.89194,37.4775,True
Краснодарский край,Анапский район,хутор,Иванов,45.116159,37.459577,True
Краснодарский край,Анапский район,хутор,Капустин,45.032653,37.318382,True
Краснодарский край,Анапский район,хутор,Коваленко,45.027777777778,37.586388888889,True
Краснодарский край,Анапский район,хутор,Красная Горка,45.130023,37.455651,True
Краснодарский край,Анапский район,хутор,Красная Скала,45.021847,37.38301,True
Краснодарский край,Анапский район,хутор,Красный,44.94333,37.34806,True
Краснодарский край,Анапский район,хутор,Красный Курган,45.01506,37.331514,True
Краснодарский край,Анапский район,хутор,Куматырь,44.93722,37.44312,True
Краснодарский край,Анапский район,хутор,Курбацкий,44.92993,37.40861,True
Краснодарский край,Анапский район,хутор,Куток,44.956249,37.459828,True
Краснодарский край,Анапский район,хутор,Малый Разнокол,45.150762,37.442248,True
Краснодарский край,Анапский район,посёлок,Малый Утриш,44.70806,37.45833,True
Краснодарский край,Анапский район,хутор,Малый Чекон,45.063515,37.543003,True
Краснодарский край,Анапский район,хутор,Нижний Ханчакрак,45.100224,37.383489,True
Краснодарский край,Анапский район,хутор,Нижняя Гостагайка,45.039064,37.348979,True
Краснодарский край,Анапский район,хутор,Песчаный,45.01944,37.29639,True
Краснодарский край,Анапский район,хутор,Прикубанский,45.188552,37.46997,True
Краснодарский край,Анапский район,посёлок,Просторный,44.93167,37.37833,True
Краснодарский край,Анапский район,посёлок,Пятихатки,44.97556,37.30389,True
Краснодарский край,Анапский район,хутор,Рассвет,44.89444,37.4575,True
Краснодарский край,Анапский район,хутор,Розы Люксембург,45.090464,37.408681,True
Краснодарский край,Анапский район,посёлок,Суворов-Черкесский,45.064555,37.276833,True
Краснодарский край,Анапский район,село,Сукко,44.791405,37.400285,True
Краснодарский край,Анапский район,село,Супсех,44.86111,37.36667,True
Краснодарский край,Анапский район,хутор,Тарусин,44.90043,37.442311,True
Краснодарский край,Анапский район,хутор,Усатова Балка,44.89222,37.42861,True
Краснодарский край,Анапский район,посёлок,Уташ,45.09583,37.30389,True
Краснодарский край,Анапский район,хутор,Уташ,45.09861,37.34139,True
Краснодарский край,Анапский район,село,Цибанобалка,44.97972,37.34056,True
Краснодарский край,Анапский район,хутор,Чекон,45.104906,37.50814,True
Краснодарский край,Анапский район,хутор,Чёрный,45.087424,37.381902,True
Краснодарский край,Анапский район,село,Юровка,45.11667,37.41667,True
Краснодарский край,Апшеронский район,хутор,Акредасов,44.63611,39.50083,True
Краснодарский край,Апшеронский район,город,Апшеронск,44.46083,39.74056,True
Краснодарский край,Апшеронский район,хутор,Армянский,44.24139,39.82028,True
Краснодарский край,Апшеронский район,посёлок,Асфальтовая Гора,44.46167,39.44694,True
Краснодарский край,Апшеронский район,хутор,Верхние Тубы,44.09167,39.70139,True
Краснодарский край,Апшеронский район,село,Вперёд,44.54083,39.70444,True
Краснодарский край,Апшеронский район,хутор,Годовников,44.35111,39.80083,True
Краснодарский край,Апшеронский район,хутор,Горный Луч,44.33556,39.80417,True
Краснодарский край,Апшеронский район,хутор,Городок,44.42417,39.38,True
Краснодарский край,Апшеронский район,хутор,Гуамка,44.23333,39.90472,True
Краснодарский край,Апшеронский район,хутор,Десятый Километр,44.20806,39.6825,True
Краснодарский край,Апшеронский район,хутор,Елинский,44.55611,39.55722,True
Краснодарский край,Апшеронский район,посёлок,Ерик,44.58333,39.70111,True
Краснодарский край,Апшеронский район,хутор,Зазулин,44.43667,39.83583,True
Краснодарский край,Апшеронский район,хутор,Заречный,44.59861,39.73278,True
Краснодарский край,Апшеронский район,хутор,Захаров,44.56056,39.52944,True
Краснодарский край,Апшеронский район,станица,Кабардинская,44.49972,39.49,True
Краснодарский край,Апшеронский район,хутор,Калинина,44.5025,39.72139,True
Краснодарский край,Апшеронский район,хутор,Красная Горка,44.425,39.63528,True
Краснодарский край,Апшеронский район,хутор,Красный Дагестан,44.34,39.95472,True
Краснодарский край,Апшеронский район,станица,Кубанская,44.60528,39.71306,True
Краснодарский край,Апшеронский район,станица,Куринская,44.41333,39.42056,True
Краснодарский край,Апшеронский район,хутор,Кушинка,44.21472,39.65861,True
Краснодарский край,Апшеронский район,станица,Лесогорская,44.55,39.54167,True
Краснодарский край,Апшеронский район,станица,Линейная,44.59167,39.49167,True
Краснодарский край,Апшеронский район,хутор,Малько,44.46639,39.68639,True
Краснодарский край,Апшеронский район,посёлок,Мезмай,44.2,39.96667,True
Краснодарский край,Апшеронский район,пгт,Нефтегорск,44.355175,39.703452,True
Краснодарский край,Апшеронский район,станица,Нефтяная,44.37278,39.64528,True
Краснодарский край,Апшеронский район,станица,Нижегородская,44.27,39.92083,True
Краснодарский край,Апшеронский район,хутор,Николаенко,44.40778,39.67111,True
Краснодарский край,Апшеронский район,посёлок,Новые Поляны,44.30056,39.82667,True
Краснодарский край,Апшеронский район,посёлок,Новый Режет,44.17889,39.66083,True
Краснодарский край,Апшеронский район,село,Осиновское,44.55139,39.50889,True
Краснодарский край,Апшеронский район,посёлок,Отдалённый,44.06611,39.70611,True
Краснодарский край,Апшеронский район,хутор,Папоротный,44.40444,39.48139,True
Краснодарский край,Апшеронский район,хутор,Подольский,44.34556,39.70889,True
Краснодарский край,Апшеронский район,село,Пригорное,44.23333,39.75056,True
Краснодарский край,Апшеронский район,посёлок,Режет,44.18806,39.68,True
Краснодарский край,Апшеронский район,станица,Самурская,44.27944,39.83528,True
Краснодарский край,Апшеронский район,хутор,Спасов,44.44194,39.66306,True
Краснодарский край,Апшеронский район,посёлок,Станционный,44.43472,39.47833,True
Краснодарский край,Апшеронский район,хутор,Старый Куринский,44.38917,39.40833,True
Краснодарский край,Апшеронский район,станица,Тверская,44.60306,39.61083,True
Краснодарский край,Апшеронский район,станица,Темнолесская,44.20417,40.00444,True
Краснодарский край,Апшеронский район,хутор,Травалёв,44.36778,39.54194,True
Краснодарский край,Апшеронский район,село,Тубы,44.11278,39.68472,True
Краснодарский край,Апшеронский район,город,Хадыженск,44.42389,39.53722,True
Краснодарский край,Апшеронский район,хутор,Цуревский,44.40889,39.78861,True
Краснодарский край,Апшеронский район,село,Черниговское,44.25056,39.7625,True
Краснодарский край,Апшеронский район,станица,Ширванская,44.37167,39.80861,True
Краснодарский край,Апшеронский район,посёлок,Ширванская Водокачка,44.37028,39.79222,True
Краснодарский край,Белоглинский район,село,Белая Глина,46.08333,40.85,True
Краснодарский край,Белоглинский район,посёлок,Восточный,46.19,40.95556,True
Краснодарский край,Белоглинский район,посёлок,Западный,46.17417,40.60167,True
Краснодарский край,Белоглинский район,село,Кулешовка,45.96194,41.09833,True
Краснодарский край,Белоглинский район,посёлок,Магистральный,46.27583,40.96917,True
Краснодарский край,Белоглинский район,хутор,Меклета,45.89,40.99111,True
Краснодарский край,Белоглинский район,станица,Новолокинская,45.79944,41.215,True
Краснодарский край,Белоглинский район,село,Новопавловка,45.98111,40.96722,True
Краснодарский край,Белоглинский район,посёлок,Садовый,46.19806,40.91528,True
Краснодарский край,Белоглинский район,посёлок,Селекционный,46.185,40.71528,True
Краснодарский край,Белоглинский район,посёлок,Семеноводческий,46.23806,40.70639,True
Краснодарский край,Белоглинский район,хутор,Туркинский,45.735,40.95583,True
Краснодарский край,Белоглинский район,станица,Успенская,45.7625,41.06,True
Краснодарский край,Белоглинский район,посёлок,Центральный,46.19889,40.84139,True
Краснодарский край,Белореченский район,хутор,Авиация,45.0275,39.54583,True
Краснодарский край,Белореченский район,хутор,Амосов,45.00111,39.87306,True
Краснодарский край,Белореченский район,село,Архиповское,45.00667,39.855,True
Краснодарский край,Белореченский район,хутор,Беляевский,45.01694,39.48833,True
Краснодарский край,Белореченский район,хутор,Бережной,44.92389,39.90917,True
Краснодарский край,Белореченский район,станица,Бжедуховская,44.83333,39.66667,True
Краснодарский край,Белореченский район,хутор,Большой Бродовой,44.97083,39.87472,True
Краснодарский край,Белореченский район,село,Великовечное,44.935,39.755,True
Краснодарский край,Белореченский район,хутор,Вербин,45.01361,39.87306,True
Краснодарский край,Белореченский район,посёлок,Верхневеденеевский,44.83222,39.77694,True
Краснодарский край,Белореченский район,посёлок,Восточный,44.73833,39.96639,True
Краснодарский край,Белореченский район,посёлок,Высотный,44.95417,39.68194,True
Краснодарский край,Белореченский район,посёлок,Ганжинский,44.90444,39.67833,True
Краснодарский край,Белореченский район,хутор,Гливенко,44.90583,39.63694,True
Краснодарский край,Белореченский район,хутор,Головков,45.02278,39.58528,True
Краснодарский край,Белореченский район,хутор,Грушёвый,44.76417,39.97722,True
Краснодарский край,Белореченский район,станица,Гурийская,44.65,39.6,True
Краснодарский край,Белореченский район,хутор,Долгогусевский,44.80528,39.7875,True
Краснодарский край,Белореченский район,посёлок,Дружный,44.72306,39.77778,True
Краснодарский край,Белореченский район,посёлок,Дунайский,44.57333,39.80806,True
Краснодарский край,Белореченский район,хутор,Каневецкий,44.80278,39.65833,True
Краснодарский край,Белореченский район,хутор,Капустин,44.89833,39.92444,True
Краснодарский край,Белореченский район,посёлок,Комсомольский,44.93389,39.70667,True
Краснодарский край,Белореченский район,посёлок,Коренная Балка,44.58861,39.81667,True
Краснодарский край,Белореченский район,хутор,Кубанский,44.62083,39.77611,True
Краснодарский край,Белореченский район,хутор,Лантратов,44.91111,39.9225,True
Краснодарский край,Белореченский район,село,Леонтьевское,44.90056,39.77556,True
Краснодарский край,Белореченский район,посёлок,Лесной,44.545,39.81417,True
Краснодарский край,Белореченский район,хутор,Лукашёв,44.79472,39.77472,True
Краснодарский край,Белореченский район,хутор,Малый Бродовой,44.99,39.86833,True
Краснодарский край,Белореченский район,хутор,Малый Дукмасов,44.94861,39.87417,True
Краснодарский край,Белореченский район,посёлок,Мирный,44.72583,39.72361,True
Краснодарский край,Белореченский район,посёлок,Молодёжный,44.6775,39.67806,True
Краснодарский край,Белореченский район,посёлок,МТФ № 1 колхоза имени Ленина,44.8175,39.86306,True
Краснодарский край,Белореченский район,посёлок,МТФ № 2 колхоза имени Ленина,44.76639,39.91556,True
Краснодарский край,Белореченский район,посёлок,Нижневеденеевский,44.88139,39.65667,True
Краснодарский край,Белореченский район,село,Новоалексеевское,44.95222,39.86333,True
Краснодарский край,Белореченский район,хутор,Новогурийский,44.78139,39.65444,True
Краснодарский край,Белореченский район,хутор,Новосёловский,44.86278,39.8125,True
Краснодарский край,Белореченский район,станица,Октябрьская,44.85306,39.62056,True
Краснодарский край,Белореченский район,посёлок,Первомайский,44.89444,39.74111,True
Краснодарский край,Белореченский район,хутор,Подгорный,44.77444,39.96222,True
Краснодарский край,Белореченский район,хутор,Потин,44.965,39.86778,True
Краснодарский край,Белореченский район,хутор,Привольный,44.875,39.80472,True
Краснодарский край,Белореченский район,хутор,Приречный,44.72306,39.89944,True
Краснодарский край,Белореченский район,посёлок,Проточный,44.86528,39.76972,True
Краснодарский край,Белореченский район,станица,Пшехская,44.69778,39.79583,True
Краснодарский край,Белореченский район,посёлок,Родники,44.7475,39.91028,True
Краснодарский край,Белореченский район,станица,Рязанская,44.95833,39.58333,True
Краснодарский край,Белореченский район,посёлок,Садовый,44.79111,39.83722,True
Краснодарский край,Белореченский район,хутор,Северный,45.035,39.59722,True
Краснодарский край,Белореченский район,хутор,Средний Дукмасов,44.95861,39.87917,True
Краснодарский край,Белореченский район,посёлок,Степной,44.8475,39.93194,True
Краснодарский край,Белореченский район,хутор,Терновый,44.62139,39.84444,True
Краснодарский край,Белореченский район,хутор,Фадеевский,44.64361,39.8625,True
Краснодарский край,Белореченский район,хутор,Фокин Первый,45.01472,39.51778,True
Краснодарский край,Белореченский район,станица,Черниговская,44.70194,39.66556,True
Краснодарский край,Белореченский район,хутор,Черниговский,44.92972,39.89583,True
Краснодарский край,Белореченский район,село,Школьное,44.90639,39.85167,True
Краснодарский край,Брюховецкий район,станица,Батуринская,45.78333,39.36667,True
Краснодарский край,Брюховецкий район,село,Бейсугское,45.8814139,38.7048389,True
Краснодарский край,Брюховецкий район,село,Большой Бейсуг,45.78111,39.22889,True
Краснодарский край,Брюховецкий район,станица,Брюховецкая,45.80083,39.00417,True
Краснодарский край,Брюховецкий район,посёлок,Встречный,45.922225,38.9656833,True
Краснодарский край,Брюховецкий район,хутор,Гарбузовая Балка,45.84917,38.815,True
Краснодарский край,Брюховецкий район,посёлок,Заря,45.79194,39.32222,True
Краснодарский край,Брюховецкий район,хутор,Зозова Балка,45.78917,39.50639,True
Краснодарский край,Брюховецкий район,хутор,Имерницин,45.76639,39.11194,True
Краснодарский край,Брюховецкий район,хутор,Кавказский,45.7307306,39.0118639,True
Краснодарский край,Брюховецкий район,хутор,Киновия,45.9077083,38.9284333,True
Краснодарский край,Брюховецкий район,хутор,Красная Звезда,45.86,38.86417,True
Краснодарский край,Брюховецкий район,хутор,Красная Нива,45.7481639,39.0194972,True
Краснодарский край,Брюховецкий район,хутор,Красная Поляна,45.768111,39.0267861,True
Краснодарский край,Брюховецкий район,хутор,Кубань,45.7936083,39.0987278,True
Краснодарский край,Брюховецкий район,посёлок,Лебяжий Остров,45.8835083,38.9130417,True
Краснодарский край,Брюховецкий район,посёлок,Лиманский,45.8626694,38.9389861,True
Краснодарский край,Брюховецкий район,станица,Новоджерелиевская,45.775,38.675,True
Краснодарский край,Брюховецкий район,село,Новое Село,45.8855333,39.4710389,True
Краснодарский край,Брюховецкий район,станица,Переясловская,45.84472,39.02167,True
Краснодарский край,Брюховецкий район,хутор,Победа,45.7253917,39.0352056,True
Краснодарский край,Брюховецкий район,хутор,Поды,45.8035972,38.8042806,True
Краснодарский край,Брюховецкий район,хутор,Полтавский,45.78778,39.43944,True
Краснодарский край,Брюховецкий район,хутор,Привольный,45.8059333,39.1597889,True
Краснодарский край,Брюховецкий район,село,Приречное,45.79861,39.29306,True
Краснодарский край,Брюховецкий район,посёлок,Раздольный,45.9001333,38.89389,True
Краснодарский край,Брюховецкий район,хутор,Рогачи,45.8672278,38.7717444,True
Краснодарский край,Брюховецкий район,село,Свободное,45.87167,39.15806,True
Краснодарский край,Брюховецкий район,хутор,Сопова Балка,45.944125,38.958275,True
Краснодарский край,Брюховецкий район,село,Харьково-Полтавское,45.78917,39.12917,True
Краснодарский край,Брюховецкий район,хутор,Челюскинец,45.8517611,38.6253556,True
Краснодарский край,Брюховецкий район,станица,Чепигинская,45.9290361,38.8762278,True
Краснодарский край,Брюховецкий район,хутор,Чкалова,45.77083,39.015,True
Краснодарский край,Выселковский район,станица,Александроневская,45.69444,39.88722,True
Краснодарский край,Выселковский район,станица,Балковская,45.81111,39.72972,True
Краснодарский край,Выселковский район,посёлок,Бейсуг,45.7,39.85,True
Краснодарский край,Выселковский район,хутор,Бейсужёк Второй,45.48611,39.71583,True
Краснодарский край,Выселковский район,станица,Березанская,45.7,39.58333,True
Краснодарский край,Выселковский район,станица,Бузиновская,45.6,39.78333,True
Краснодарский край,Выселковский район,станица,Выселки,45.58056,39.65722,True
Краснодарский край,Выселковский район,посёлок,Газырь,45.75,39.93333,True
Краснодарский край,Выселковский район,посёлок,Гражданский,45.78025,39.8736222,True
Краснодарский край,Выселковский район,станица,Заречный,45.7347167,39.6368167,True
Краснодарский край,Выселковский район,село,Заря,45.6681694,39.6413167,True
Краснодарский край,Выселковский район,хутор,Иногородне-Малёваный,45.5424028,39.6295139,True
Краснодарский край,Выселковский район,станица,Ирклиевская,45.85,39.65,True
Краснодарский край,Выселковский район,посёлок,Красный,45.8452306,39.7800583,True
Краснодарский край,Выселковский район,станица,Крупская,45.70083,39.97639,True
Краснодарский край,Выселковский район,станица,Новобейсугская,45.47139,39.89111,True
Краснодарский край,Выселковский район,станица,Новогражданская,45.58833,40.00306,True
Краснодарский край,Выселковский район,станица,Новодонецкая,45.69583,39.81333,True
Краснодарский край,Выселковский район,станица,Новомалороссийская,45.63,39.89583,True
Краснодарский край,Выселковский район,посёлок,Первомайский,45.7052028,40.1217,True
Краснодарский край,Выселковский район,село,Первомайское,45.6626472,39.7181167,True
Краснодарский край,Выселковский район,посёлок,Октябрьский,45.803667,39.9943861,True
Краснодарский край,Выселковский район,посёлок,Отважный,45.796083,39.8027194,True
Краснодарский край,Выселковский район,хутор,Память Ленина,45.8834417,39.539639,True
Краснодарский край,Выселковский район,посёлок,Советский,45.7528583,40.0101,True
Краснодарский край,Гулькевичский район,хутор,Алексеевский,45.2275222,40.6153917,True
Краснодарский край,Гулькевичский район,хутор,Борисов,45.193825,40.4378361,True
Краснодарский край,Гулькевичский район,посёлок,Ботаника,45.2141917,40.7949222,True
Краснодарский край,Гулькевичский район,хутор,Братский,45.157167,40.7837472,True
Краснодарский край,Гулькевичский район,хутор,Булгаков,45.1895139,40.5135694,True
Краснодарский край,Гулькевичский район,посёлок,Венцы,45.38333,40.83333,True
Краснодарский край,Гулькевичский район,хутор,Вербовый,45.2403556,40.4961417,True
Краснодарский край,Гулькевичский район,хутор,Воздвиженский,45.1713861,40.8093417,True
Краснодарский край,Гулькевичский район,пгт,Гирей,45.4,40.66667,True
Краснодарский край,Гулькевичский район,город,Гулькевичи,45.36028,40.69444,True
Краснодарский край,Гулькевичский район,посёлок,Дальний,45.3046583,40.5196139,True
Краснодарский край,Гулькевичский район,хутор,Духовской,45.41722,40.91583,True
Краснодарский край,Гулькевичский район,хутор,Журавлев,45.240444,40.4219417,True
Краснодарский край,Гулькевичский район,хутор,Зарьков,45.11694,40.72833,True
Краснодарский край,Гулькевичский район,посёлок,Заря,45.3314222,40.8263139,True
Краснодарский край,Гулькевичский район,хутор,Зеленчук,45.12361,40.70694,True
Краснодарский край,Гулькевичский район,хутор,Ивлев,45.19056,40.53222,True
Краснодарский край,Гулькевичский район,хутор,Киевка,45.26115,41.008975,True
Краснодарский край,Гулькевичский район,посёлок,Комсомольский,45.3024472,40.6784611,True
Краснодарский край,Гулькевичский район,хутор,Кравченко,45.4181861,40.935225,True
Краснодарский край,Гулькевичский район,хутор,Красная Поляна,45.3553,40.8649361,True
Краснодарский край,Гулькевичский район,пгт,Красносельский,45.39333,40.59833,True
Краснодарский край,Гулькевичский район,хутор,Крупский,45.343425,40.7716972,True
Краснодарский край,Гулькевичский район,посёлок,Кубань,45.3551417,40.4106917,True
Краснодарский край,Гулькевичский район,хутор,Лебедев,45.245275,40.5120861,True
Краснодарский край,Гулькевичский район,хутор,Лебяжий,45.3867361,40.803278,True
Краснодарский край,Гулькевичский район,посёлок,Лесодача,45.36861,40.93972,True
Краснодарский край,Гулькевичский район,село,Майкопское,45.39222,40.764972,True
Краснодарский край,Гулькевичский район,хутор,Машевский,45.2831833,40.7010639,True
Краснодарский край,Гулькевичский район,посёлок,Мирный,45.3431639,40.3115917,True
Краснодарский край,Гулькевичский район,хутор,Мирный Пахарь,45.2219472,40.8115139,True
Краснодарский край,Гулькевичский район,село,Николенское,45.2424667,40.554075,True
Краснодарский край,Гулькевичский район,посёлок,Новоивановский,45.3608833,40.3788389,True
Краснодарский край,Гулькевичский район,хутор,Новокрасный,45.1503167,40.6740083,True
Краснодарский край,Гулькевичский район,село,Новомихайловское,45.29028,41.00722,True
Краснодарский край,Гулькевичский район,хутор,Новопавловский,45.2459917,40.7092389,True
Краснодарский край,Гулькевичский район,село,Новоукраинское,45.37778,40.52222,True
Краснодарский край,Гулькевичский район,хутор,Орлов,45.245639,40.4884389,True
Краснодарский край,Гулькевичский район,село,Отрадо-Кубанское,45.24722,40.83333,True
Краснодарский край,Гулькевичский район,село,Отрадо-Ольгинское,45.3032917,40.9371306,True
Краснодарский край,Гулькевичский район,хутор,Партизан,45.2353556,40.4143083,True
Краснодарский край,Гулькевичский район,посёлок,Первомайского Лесничества,45.403194,40.957278,True
Краснодарский край,Гулькевичский район,хутор,Петровский,45.2170806,40.6521806,True
Краснодарский край,Гулькевичский район,хутор,Подлесный,45.3841083,40.942639,True
Краснодарский край,Гулькевичский район,посёлок,Подлесный,45.3691778,40.4134389,True
Краснодарский край,Гулькевичский район,село,Приозёрное,45.41389,40.7,True
Краснодарский край,Гулькевичский район,хутор,Прогресс,45.2723389,40.7815167,True
Краснодарский край,Гулькевичский район,село,Пушкинское,45.1753222,40.6036583,True
Краснодарский край,Гулькевичский район,хутор,Родников,45.2309278,40.4392306,True
Краснодарский край,Гулькевичский район,хутор,Самойлов,45.36722,40.60556,True
Краснодарский край,Гулькевичский район,хутор,Сергеевский,45.24111,40.40167,True
Краснодарский край,Гулькевичский район,станица,Скобелевская,45.1975,40.42222,True
Краснодарский край,Гулькевичский район,посёлок,Советский,45.3624139,40.4476639,True
Краснодарский край,Гулькевичский район,село,Соколовское,45.2569583,40.654475,True
Краснодарский край,Гулькевичский район,хутор,Спорный,45.2405639,40.4517389,True
Краснодарский край,Гулькевичский район,хутор,Старогермановский,45.0827611,40.773528,True
Краснодарский край,Гулькевичский район,хутор,Старомавринский,45.2770528,40.807417,True
Краснодарский край,Гулькевичский район,хутор,Тельман,45.362833,40.634194,True
Краснодарский край,Гулькевичский район,посёлок,Трудовой,45.3361333,40.278806,True
Краснодарский край,Гулькевичский район,хутор,Тысячный,45.1808,40.7686,True
Краснодарский край,Гулькевичский район,посёлок,Урожайный,45.34306,40.47222,True
Краснодарский край,Гулькевичский район,хутор,Чаплыгин,45.1111056,40.7594833,True
Краснодарский край,Гулькевичский район,хутор,Черединовский,45.4143111,40.7266361,True
Краснодарский край,Динской район,посёлок,Агроном,45.13333,39.18333,True
Краснодарский край,Динской район,посёлок ж.д. станции,Васюринская,45.1136528,39.3822917,True
Краснодарский край,Динской район,станица,Васюринская,45.11667,39.41667,True
Краснодарский край,Динской район,посёлок,Вишняки,45.11806,39.21972,True
Краснодарский край,Динской район,станица,Воронцовская,45.22056,38.73667,True
Краснодарский край,Динской район,хутор,Восточный,45.384925,39.0926222,True
Краснодарский край,Динской район,хутор,Горлачивка,45.35885,39.0887028,True
Краснодарский край,Динской район,посёлок,Дальний,45.4031556,38.8515528,True
Краснодарский край,Динской район,станица,Динская,45.21667,39.22472,True
Краснодарский край,Динской район,посёлок,Зарождение,45.1572083,39.2361278,True
Краснодарский край,Динской район,хутор,Карла Маркса,45.2328778,39.0863944,True
Краснодарский край,Динской район,посёлок,Кочетинский,45.175361,39.2390528,True
Краснодарский край,Динской район,село,Красносельское,45.28333,39.16667,True
Краснодарский край,Динской район,посёлок,Найдорф,45.3275028,38.8234833,True
Краснодарский край,Динской район,станица,Нововеличковская,45.27861,38.8375,True
Краснодарский край,Динской район,станица,Новотитаровская,45.23583,38.97111,True
Краснодарский край,Динской район,хутор,Новый,45.3206778,39.123675,True
Краснодарский край,Динской район,хутор,Осечки,45.2379528,38.8708583,True
Краснодарский край,Динской район,село,Первореченское,45.15833,39.3,True
Краснодарский край,Динской район,станица,Пластуновская,45.29611,39.26611,True
Краснодарский край,Динской район,село,Примаки,45.1987528,38.8562639,True
Краснодарский край,Динской район,посёлок ж.д. разъезда,Редутский,45.1691361,39.4610139,True
Краснодарский край,Динской район,посёлок,Северо-Кавказской зональной опытной станции ВНИИЛР,45.1425694,39.4201472,True
Краснодарский край,Динской район,станица,Старомышастовская,45.34194,39.07278,True
Краснодарский край,Динской район,посёлок,Украинский,45.25139,39.35278,True
Краснодарский край,Динской район,посёлок,Южный,45.15,39.00833,True
Краснодарский край,Динской район,посёлок,Янтарный,45.1295472,39.244275,True
Краснодарский край,Ейский район,село,Александровка,46.64722,38.39722,True
Краснодарский край,Ейский район,посёлок,Большевик,46.51528,38.23472,True
Краснодарский край,Ейский район,посёлок,Братский,46.51361,38.31333,True
Краснодарский край,Ейский район,село,Воронцовка,46.65278,38.07778,True
Краснодарский край,Ейский район,посёлок,Дальний,46.44861,38.14167,True
Краснодарский край,Ейский район,станица,Должанская,46.63333,37.8,True
Краснодарский край,Ейский район,посёлок,Заводской,46.42611,38.46194,True
Краснодарский край,Ейский район,посёлок,Заря,46.50333,38.17278,True
Краснодарский край,Ейский район,хутор,Зелёная Роща,46.64306,38.45556,True
Краснодарский край,Ейский район,станица,Камышеватская,46.41111,37.95,True
Краснодарский край,Ейский район,посёлок,Комсомолец,46.57778,38.26111,True
Краснодарский край,Ейский район,станица,Копанская,46.26667,38.46667,True
Краснодарский край,Ейский район,село,Красноармейское,46.64722,38.20472,True
Краснодарский край,Ейский район,село,Кухаривка,46.62639,38.14528,True
Краснодарский край,Ейский район,посёлок,Мирный,46.55889,38.01083,True
Краснодарский край,Ейский район,посёлок,Моревка,46.54583,38.05694,True
Краснодарский край,Ейский район,посёлок,Николая Островского,46.44028,38.32472,True
Краснодарский край,Ейский район,хутор,Новатор,46.56806,38.18944,True
Краснодарский край,Ейский район,хутор,Новодеревянковский,46.39917,38.45806,True
Краснодарский край,Ейский район,посёлок,Октябрьский,46.49028,38.28,True
Краснодарский край,Ейский район,посёлок,Первомайский,46.45389,38.25333,True
Краснодарский край,Ейский район,хутор,Приазовка,46.65083,38.16028,True
Краснодарский край,Ейский район,посёлок,Пролетарский,46.47444,38.42722,True
Краснодарский край,Ейский район,хутор,Рассвет,46.59278,38.38806,True
Краснодарский край,Ейский район,посёлок,Садовый,46.64778,38.43361,True
Краснодарский край,Ейский район,посёлок,Симоновка,46.5882861,38.3057333,True
Краснодарский край,Ейский район,посёлок,Советский,46.51611,38.14028,True
Краснодарский край,Ейский район,посёлок,Степной,46.59167,38.41694,True
Краснодарский край,Ейский район,хутор,Шиловка,46.32528,38.2225,True
Краснодарский край,Ейский район,станица,Ясенская,46.3575,38.27528,True
Краснодарский край,Ейский район,посёлок,Ясенская Переправа,46.25,38.29722,True
Краснодарский край,Ейский район,посёлок,Яснопольский,46.57028,38.40917,True
Краснодарский край,Кавказский район,хутор,Внуковский,45.561675,40.5009833,True
Краснодарский край,Кавказский район,посёлок,Возрождение,45.512944,40.4564056,True
Краснодарский край,Кавказский район,хутор,Восточный,45.557025,40.5159583,True
Краснодарский край,Кавказский район,посёлок,Десятихатка,45.47056,40.49861,True
Краснодарский край,Кавказский район,станица,Дмитриевская,45.65,40.75,True
Краснодарский край,Кавказский район,посёлок,имени М. Горького,45.54944,40.72556,True
Краснодарский край,Кавказский район,станица,Кавказская,45.43972,40.66889,True
Краснодарский край,Кавказский район,станица,Казанская,45.4,40.43333,True
Краснодарский край,Кавказский район,хутор,Казачий,45.5541694,40.5568722,True
Краснодарский край,Кавказский район,посёлок,Комсомольский,45.5578222,40.3363667,True
Краснодарский край,Кавказский район,хутор,Красная Звезда,45.5698306,40.4760639,True
Краснодарский край,Кавказский район,посёлок,Красноармейский,45.495111,40.3842389,True
Краснодарский край,Кавказский район,хутор,Лосево,45.5509639,40.594472,True
Краснодарский край,Кавказский район,посёлок,Мирской,45.5414583,40.401028,True
Краснодарский край,Кавказский район,посёлок,Озёрный,45.5304222,40.7373722,True
Краснодарский край,Кавказский район,посёлок,Октябрьский,45.4794222,40.4472583,True
Краснодарский край,Кавказский район,хутор,Полтавский,45.5755528,40.4574361,True
Краснодарский край,Кавказский район,хутор,Прибрежный,45.5790972,40.4547889,True
Краснодарский край,Кавказский район,хутор,Привольный,45.5584333,40.4857694,True
Краснодарский край,Кавказский район,посёлок,Пролетарский,45.5158278,40.6468028,True
Краснодарский край,Кавказский район,хутор,Пролетарский,45.54306,40.75556,True
Краснодарский край,Кавказский район,посёлок,Расцвет,45.5557333,40.269389,True
Краснодарский край,Кавказский район,хутор,Рогачев,45.5474333,40.5414222,True
Краснодарский край,Кавказский район,хутор,Розы Люксембург,45.5997333,40.3267167,True
Краснодарский край,Кавказский район,посёлок,Садовый,45.549667,40.230333,True
Краснодарский край,Кавказский район,посёлок,Степной,45.5949944,40.531806,True
Краснодарский край,Кавказский район,станица,Темижбекская,45.44583,40.84722,True
Краснодарский край,Кавказский район,хутор,Черномуровский,45.54111,40.7891861,True
Краснодарский край,Калининский район,хутор,Ангелинский,45.537825,38.4132667,True
Краснодарский край,Калининский район,станица,Андреевская,45.31667,38.65,True
Краснодарский край,Калининский район,хутор,Бойкопонура,45.35,38.76667,True
Краснодарский край,Калининский район,хутор,Васильевка,45.3356889,38.7918639,True
Краснодарский край,Калининский район,хутор,Греки,45.6631,38.5204917,True
Краснодарский край,Калининский район,хутор,Гречаная Балка,45.6606472,38.5752528,True
Краснодарский край,Калининский район,станица,Гривенская,45.645,38.16028,True
Краснодарский край,Калининский район,село,Гришковское,45.38472,38.59639,True
Краснодарский край,Калининский район,хутор,Джумайловка,45.45385,38.598833,True
Краснодарский край,Калининский район,село,Долиновское,45.3426583,38.7928833,True
Краснодарский край,Калининский район,хутор,Журавлёвка,45.46861,38.66472,True
Краснодарский край,Калининский район,село,Зареченское,45.4435778,38.622611,True
Краснодарский край,Калининский район,станица,Калининская,45.48556,38.65944,True
Краснодарский край,Калининский район,хутор,Лебеди,45.620284,38.265297,True
Краснодарский край,Калининский район,хутор,Малаи,45.62833,38.50083,True
Краснодарский край,Калининский район,хутор,Масенковский,45.4451472,38.584325,True
Краснодарский край,Калининский район,хутор,Мащенский,45.66056,38.53667,True
Краснодарский край,Калининский район,посёлок,Мирный,45.67465,38.61995,True
Краснодарский край,Калининский район,хутор,Могукоровка,45.700972,38.4509972,True
Краснодарский край,Калининский район,станица,Новониколаевская,45.588125,38.365434,True
Краснодарский край,Калининский район,хутор,Пригибский,45.7564833,38.0797944,True
Краснодарский край,Калининский район,хутор,Рашпыли,45.43944,38.61944,True
Краснодарский край,Калининский район,хутор,Редант,45.7171583,38.526775,True
Краснодарский край,Калининский район,посёлок,Рогачёвский,45.636556,38.6106889,True
Краснодарский край,Калининский район,хутор,Северный,45.4304639,38.5943722,True
Краснодарский край,Калининский район,станица,Старовеличковская,45.4346972,38.71915,True
Краснодарский край,Калининский район,хутор,Степной,45.6225,38.51861,True
Краснодарский край,Каневской район,хутор,Албаши,46.2557361,38.6155528,True
Краснодарский край,Каневской район,станица,Александровская,46.21361,39.06417,True
Краснодарский край,Каневской район,хутор,Большие Челбасы,46.105922,39.160267,True
Краснодарский край,Каневской район,хутор,Борец Труда,46.224972,38.834278,True
Краснодарский край,Каневской район,хутор,Бурсаки,46.1035667,39.1085056,True
Краснодарский край,Каневской район,посёлок,Весёлый,45.9657833,39.4918,True
Краснодарский край,Каневской район,хутор,Вольный,46.20385,38.7362556,True
Краснодарский край,Каневской район,хутор,Восточный,46.3311833,38.8641694,True
Краснодарский край,Каневской район,хутор,Добровольный,46.0211083,38.7238944,True
Краснодарский край,Каневской район,село,Калинино,45.9729278,39.2202167,True
Краснодарский край,Каневской район,станица,Каневская,46.08333,38.95,True
Краснодарский край,Каневской район,посёлок,Красногвардеец,46.1574611,39.1667667,True
Краснодарский край,Каневской район,хутор,Красный Очаг,46.3395806,38.8293139,True
Краснодарский край,Каневской район,посёлок,Кубанская Степь,45.9655,39.226694,True
Краснодарский край,Каневской район,хутор,Ленинский,46.1890639,38.6967333,True
Краснодарский край,Каневской район,хутор,Мигуты,46.1536167,39.1246278,True
Краснодарский край,Каневской район,станица,Новодеревянковская,46.31667,38.75,True
Краснодарский край,Каневской район,станица,Новоминская,46.31111,38.95833,True
Краснодарский край,Каневской район,хутор,Орджоникидзе,46.127833,38.7834806,True
Краснодарский край,Каневской район,посёлок,Партизанский,45.9292639,39.0306833,True
Краснодарский край,Каневской район,станица,Привольная,46.13333,38.7,True
Краснодарский край,Каневской район,станица,Придорожная,45.99222,38.96583,True
Краснодарский край,Каневской район,хутор,Приютный,46.197972,38.7172667,True
Краснодарский край,Каневской район,хутор,Раздольный,46.2965639,38.6206417,True
Краснодарский край,Каневской район,хутор,Раков,45.99722,38.926525,True
Краснодарский край,Каневской район,хутор,Сладкий Лиман,46.184775,38.7895028,True
Краснодарский край,Каневской район,хутор,Средние Челбасы,46.0517528,39.1675028,True
Краснодарский край,Каневской район,станица,Стародеревянковская,46.13278,38.96333,True
Краснодарский край,Каневской район,посёлок,Степной,45.9400667,39.1559333,True
Краснодарский край,Каневской район,хутор,Сухие Челбасы,45.9746611,39.1758944,True
Краснодарский край,Каневской район,хутор,Труд,46.1540306,38.5365472,True
Краснодарский край,Каневской район,хутор,Трудовая Армения,46.1772389,38.8369083,True
Краснодарский край,Каневской район,хутор,Ударный,46.2016778,39.0117639,True
Краснодарский край,Каневской район,хутор,Украинка,46.1153,39.1555139,True
Краснодарский край,Каневской район,хутор,Чапаев,46.3332667,38.9884083,True
Краснодарский край,Каневской район,станица,Челбасская,45.9791361,39.3678972,True
Краснодарский край,Каневской район,хутор,Черкасский,46.14028,38.9112806,True
Краснодарский край,Каневской район,хутор,Шевченко,46.11325,39.13495,True
Краснодарский край,Кореновский район,хутор,Анапский,45.78111,39.48417,True
Краснодарский край,Кореновский район,хутор,Бабиче-Кореновский,45.55,39.33361,True
Краснодарский край,Кореновский район,село,Братковское,45.63667,39.31528,True
Краснодарский край,Кореновский район,посёлок,Братский,45.6776278,39.4785639,True
Краснодарский край,Кореновский район,хутор,Бураковский,45.4590222,39.60955,True
Краснодарский край,Кореновский район,хутор,Верхний,45.382675,39.4942472,True
Краснодарский край,Кореновский район,станица,Дядьковская,45.55,39.18333,True
Краснодарский край,Кореновский район,станица,Журавская,45.58333,39.55278,True
Краснодарский край,Кореновский район,хутор,Журавский,45.5867083,39.330675,True
Краснодарский край,Кореновский район,хутор,Казаче-Малёваный,45.53028,39.54472,True
Краснодарский край,Кореновский район,хутор,Казачий,45.3848806,39.4311639,True
Краснодарский край,Кореновский район,посёлок,Комсомольский,45.62833,39.47444,True
Краснодарский край,Кореновский район,город,Кореновск,45.46667,39.45,True
Краснодарский край,Кореновский район,хутор,Левченко,45.3985694,39.2631917,True
Краснодарский край,Кореновский район,хутор,Малёванный,45.53139,39.45694,True
Краснодарский край,Кореновский район,посёлок,Мирный,45.49389,39.55194,True
Краснодарский край,Кореновский район,хутор,Нижний,45.397389,39.2238667,True
Краснодарский край,Кореновский район,посёлок,Новоберезанский,45.69556,39.45444,True
Краснодарский край,Кореновский район,посёлок,Песчаный,45.73889,39.51333,True
Краснодарский край,Кореновский район,станица,Платнировская,45.38333,39.36667,True
Краснодарский край,Кореновский район,посёлок,Привольный,45.7314944,39.3901694,True
Краснодарский край,Кореновский район,посёлок,Пролетарский,45.6772889,39.4006833,True
Краснодарский край,Кореновский район,хутор,Пролетарский,45.5072417,39.2738944,True
Краснодарский край,Кореновский район,станица,Раздольная,45.37833,39.556875,True
Краснодарский край,Кореновский район,посёлок,Раздольный,45.7171833,39.4870972,True
Краснодарский край,Кореновский район,хутор,Свободный,45.50889,39.56611,True
Краснодарский край,Кореновский район,хутор,Северный,45.5922722,39.22095,True
Краснодарский край,Кореновский район,станица,Сергиевская,45.4231083,39.1988722,True
Краснодарский край,Кореновский район,хутор,Тыщенко,45.4388722,39.1728722,True
Краснодарский край,Кореновский район,посёлок,Южный,45.41278,39.46917,True
Краснодарский край,Красноармейский район,посёлок,Водный,45.2796222,38.3582667,True
Краснодарский край,Красноармейский район,хутор,Восточный,45.3497472,38.4717361,True
Краснодарский край,Красноармейский район,посёлок,Дружный,45.250131,38.358138,True
Краснодарский край,Красноармейский район,посёлок,Заветное,45.3434361,38.072417,True
Краснодарский край,Красноармейский район,посёлок,Заря,45.25639,38.27194,True
Краснодарский край,Красноармейский район,хутор,Зеленский,45.2599361,38.245,True
Краснодарский край,Красноармейский район,станица,Ивановская,45.26861,38.46417,True
Краснодарский край,Красноармейский район,посёлок,Казачий Ерик,45.412225,38.0969694,True
Краснодарский край,Красноармейский район,хутор,Колос,45.1472944,38.348025,True
Краснодарский край,Красноармейский район,хутор,Коржевский,45.2186194,38.192861,True
Краснодарский край,Красноармейский район,посёлок,Краснодарский,45.2831833,38.316075,True
Краснодарский край,Красноармейский район,посёлок,Краснополянский,45.2145778,38.2930639,True
Краснодарский край,Красноармейский район,посёлок,Красный Лес,45.178875,38.4060194,True
Краснодарский край,Красноармейский район,хутор,Крикуна,45.2640583,38.2137556,True
Краснодарский край,Красноармейский район,хутор,Крижановский,45.2479139,38.1701917,True
Краснодарский край,Красноармейский район,хутор,Крупской,45.485,38.40389,True
Краснодарский край,Красноармейский район,хутор,Кулика,45.27444,38.21333,True
Краснодарский край,Красноармейский район,станица,Марьянская,45.1,38.63333,True
Краснодарский край,Красноармейский район,посёлок,Мирный,45.247875,38.3246583,True
Краснодарский край,Красноармейский район,хутор,Молдаванский,45.16645,38.3238139,True
Краснодарский край,Красноармейский район,станица,Новомышастовская,45.2,38.56667,True
Краснодарский край,Красноармейский район,посёлок,Октябрьский,45.2345333,38.293417,True
Краснодарский край,Красноармейский район,хутор,Отрубные,45.46778,38.40111,True
Краснодарский край,Красноармейский район,посёлок,Первомайский,45.1768639,38.30861,True
Краснодарский край,Красноармейский район,хутор,Первомайский,45.35194,38.45556,True
Краснодарский край,Красноармейский район,посёлок,Подлесный,45.2002972,38.3332444,True
Краснодарский край,Красноармейский район,станица,Полтавская,45.36667,38.21167,True
Краснодарский край,Красноармейский район,посёлок,Полтавский,45.28472,38.24306,True
Краснодарский край,Красноармейский район,хутор,Прикубанский,45.1109861,38.4801528,True
Краснодарский край,Красноармейский район,посёлок,Приречье,45.32333,38.05667,True
Краснодарский край,Красноармейский район,хутор,Протичка,45.3776361,38.0729361,True
Краснодарский край,Красноармейский район,хутор,Протоцкие,45.51917,38.07722,True
Краснодарский край,Красноармейский район,посёлок,Рисоопытный,45.23333,38.31111,True
Краснодарский край,Красноармейский район,станица,Староджерелиевская,45.46667,38.3,True
Краснодарский край,Красноармейский район,станица,Старонижестеблиевская,45.37528,38.44472,True
Краснодарский край,Красноармейский район,хутор,Сурово,45.185139,38.2412,True
Краснодарский край,Красноармейский район,хутор,Телегин,45.28111,38.24333,True
Краснодарский край,Красноармейский район,хутор,Тиховский,45.19222,38.22333,True
Краснодарский край,Красноармейский район,хутор,Трудобеликовский,45.26694,38.16,True
Краснодарский край,Красноармейский район,хутор,Турковский,45.2319056,38.1760306,True
Краснодарский край,Красноармейский район,станица,Чебургольская,45.5575,38.09167,True
Краснодарский край,Красноармейский район,хутор,Чигрина,45.2382139,38.1705361,True
Краснодарский край,Красноармейский район,посёлок,Элитный,45.3342917,38.129694,True
Краснодарский край,Крыловский район,посёлок,Водораздельный,46.4706917,40.021825,True
Краснодарский край,Крыловский район,село,Грузское,46.41306,40.19778,True
Краснодарский край,Крыловский район,хутор,Ея,46.2866222,40.1821861,True
Краснодарский край,Крыловский район,посёлок,Запрудный,46.2490694,39.997389,True
Краснодарский край,Крыловский район,село,Ириновка,46.54,40.00722,True
Краснодарский край,Крыловский район,хутор,Казачий,46.3053083,40.1267,True
Краснодарский край,Крыловский район,хутор,Калинин,46.5313528,40.1842,True
Краснодарский край,Крыловский район,посёлок,Ключевой,46.479611,39.8883639,True
Краснодарский край,Крыловский район,посёлок,Ковалёвка,46.2450194,40.0887111,True
Краснодарский край,Крыловский район,село,Красногоровка,46.54028,40.04222,True
Краснодарский край,Крыловский район,станица,Крыловская,46.31667,39.97222,True
Краснодарский край,Крыловский район,станица,Кугоейская,46.533528,40.096194,True
Краснодарский край,Крыловский район,хутор,Лобова Балка,46.3805167,40.2044278,True
Краснодарский край,Крыловский район,станица,Новопашковская,46.4,40.06667,True
Краснодарский край,Крыловский район,станица,Новосергиевская,46.46667,39.93333,True
Краснодарский край,Крыловский район,посёлок,Обильный,46.2488306,39.9283806,True
Краснодарский край,Крыловский район,станица,Октябрьская,46.285,39.75611,True
Краснодарский край,Крыловский район,посёлок,отделения № 1 совхоза «Новосергиевское»,46.5188361,39.7654639,True
Краснодарский край,Крыловский район,посёлок,[отделения № 2 совхоза «Новосергиевское»,46.4894417,39.7589389,True
Краснодарский край,Крыловский район,посёлок,отделения № 5 совхоза «Новосергиевское»,46.4695194,40.0878444,True
Краснодарский край,Крыловский район,посёлок,отделения № 6 совхоза «Новосергиевское»,46.4438917,39.8238278,True
Краснодарский край,Крыловский район,хутор,Подкугоейский,46.53528,40.03806,True
Краснодарский край,Крыловский район,посёлок,Решетиловский,46.2432389,40.1544028,True
Краснодарский край,Крыловский район,хутор,Роккель,46.5349083,40.0578583,True
Краснодарский край,Крыловский район,хутор,Сборный,46.2438417,39.7738917,True
Краснодарский край,Крыловский район,хутор,Сиротино,46.4778139,40.2275778,True
Краснодарский край,Крыловский район,хутор,Тверской,46.413806,40.2596361,True
Краснодарский край,Крыловский район,посёлок,Темп,46.2545472,39.85285,True
Краснодарский край,Крыловский район,хутор,Тимашёвка,46.5320639,39.98885,True
Краснодарский край,Крыловский район,село,Шевченковское,46.2893083,40.2705111,True
Краснодарский край,Крымский район,хутор,Адагум,45.1,37.73333,True
Краснодарский край,Крымский район,хутор,Аккерменка,45.0079306,37.6806583,True
Краснодарский край,Крымский район,хутор,Анапский,45.07028,37.75694,True
Краснодарский край,Крымский район,хутор,Армянский,44.8618861,37.9940389,True
Краснодарский край,Крымский район,село,Баранцовское,45.0594389,37.6628694,True
Краснодарский край,Крымский район,хутор,Безводный,45.005,37.82194,True
Краснодарский край,Крымский район,хутор,Борисовский,45.0418167,37.9211139,True
Краснодарский край,Крымский район,станица,Варениковская,45.11667,37.65,True
Краснодарский край,Крымский район,хутор,Верхнеадагум,44.8798556,37.919611,True
Краснодарский край,Крымский район,хутор,Верхняя Ставрополька,44.8645639,38.0732528,True
Краснодарский край,Крымский район,хутор,Весёлый,45.09055,37.7647333,True
Краснодарский край,Крымский район,хутор,Весёлый,44.9471917,38.1008222,True
Краснодарский край,Крымский район,хутор,Весёлый,44.9924,37.9892417,True
Краснодарский край,Крымский район,посёлок,Виноградный,44.978833,37.9143583,True
Краснодарский край,Крымский район,село,Гвардейское,45.1270639,37.8729472,True
Краснодарский край,Крымский район,хутор,Гапоновский,44.793475,37.953,True
Краснодарский край,Крымский район,станица,Гладковская,44.985148,37.726622,True
Краснодарский край,Крымский район,хутор,Горновесёлый,44.9092528,37.8963556,True
Краснодарский край,Крымский район,хутор,Даманка,44.9679417,37.787556,True
Краснодарский край,Крымский район,хутор,Долгождановский,44.9669028,37.8189528,True
Краснодарский край,Крымский район,хутор,Евсеевский,45.0453028,38.1459917,True
Краснодарский край,Крымский район,посёлок,Жемчужный,44.872528,37.790056,True
Краснодарский край,Крымский район,хутор,Западный,45.147675,38.0602056,True
Краснодарский край,Крымский район,хутор,Калиновка Первая,45.0714,37.8708,True
Краснодарский край,Крымский район,хутор,Калиновка Вторая,45.07111,37.87139,True
Краснодарский край,Крымский район,хутор,Карла Маркса,45.06722,37.85556,True
Краснодарский край,Крымский район,село,Кеслерово,45.0608722,37.8210389,True
Краснодарский край,Крымский район,село,Киевское,45.03556,37.88806,True
Краснодарский край,Крымский район,хутор,Красная Батарея,45.086863,37.784894,True
Краснодарский край,Крымский район,хутор,Красный,44.979475,37.84005,True
Краснодарский край,Крымский район,хутор,Красный,44.9808806,38.0472111,True
Краснодарский край,Крымский район,хутор,Красный Октябрь,45.04335,37.7719417,True
Краснодарский край,Крымский район,хутор,Кубанская Колонка,45.0825194,37.6731611,True
Краснодарский край,Крымский район,хутор,Кувичинский,45.0647722,38.1851278,True
Краснодарский край,Крымский район,хутор,Ленинский,45.0743167,37.8508583,True
Краснодарский край,Крымский район,хутор,Ленинский,44.9155972,37.8942972,True
Краснодарский край,Крымский район,хутор,Львовский,45.003361,37.8606417,True
Краснодарский край,Крымский район,хутор,Майоровский,44.928225,38.10695,True
Краснодарский край,Крымский район,хутор,Меккерстук,44.9147639,37.8686583,True
Краснодарский край,Крымский район,село,Мерчанское,44.9489528,38.130639,True
Краснодарский край,Крымский район,хутор,Милютинский,44.9950778,37.8079417,True
Краснодарский край,Крымский район,хутор,Мова,44.9728389,38.1031722,True
Краснодарский край,Крымский район,хутор,Могукоровский,45.1531611,38.203028,True
Краснодарский край,Крымский район,село,Молдаванское,44.9438861,37.8699194,True
Краснодарский край,Крымский район,станица,Неберджаевская,44.83333,37.9,True
Краснодарский край,Крымский район,хутор,Некрасовский,45.0700417,37.9077944,True
Краснодарский край,Крымский район,хутор,Непиль,45.0530861,37.7455083,True
Краснодарский край,Крымский район,посёлок,Нефтепромысел,45.055275,37.795975,True
Краснодарский край,Крымский район,посёлок,Нефтепромысловый,45.0647611,37.7081806,True
Краснодарский край,Крымский район,станица,Нижнебаканская,44.86589,37.86317,True
Краснодарский край,Крымский район,хутор,Нижняя Ставрополька,44.8830861,38.074333,True
Краснодарский край,Крымский район,хутор,Никитинский,45.00028,37.86861,True
Краснодарский край,Крымский район,хутор,Новокалиновка,45.03833,37.72583,True
Краснодарский край,Крымский район,хутор,Новокрымский,44.9336472,37.7974778,True
Краснодарский край,Крымский район,хутор,Новомихайловский,45.04083,37.69028,True
Краснодарский край,Крымский район,село,Новопокровское,45.0431972,37.6494,True
Краснодарский край,Крымский район,хутор,Новотроицкий,45.032825,38.0144944,True
Краснодарский край,Крымский район,хутор,Новоукраинский,44.8917583,38.050175,True
Краснодарский край,Крымский район,хутор,Новый,44.9984806,37.8865972,True
Краснодарский край,Крымский район,хутор,Ольховский,45.0443806,37.968175,True
Краснодарский край,Крымский район,хутор,Орджоникидзе,44.9694833,37.7652056,True
Краснодарский край,Крымский район,хутор,Павловский,45.0747389,37.7736611,True
Краснодарский край,Крымский район,посёлок,Первенец,44.9209639,37.8791889,True
Краснодарский край,Крымский район,хутор,Плавненский,45.0335389,37.9345722,True
Краснодарский край,Крымский район,хутор,Плавни,45.0653139,38.0711889,True
Краснодарский край,Крымский район,хутор,Подгорный,44.9533167,37.8048917,True
Краснодарский край,Крымский район,хутор,Пролетарский,45.05139,37.75583,True
Краснодарский край,Крымский район,хутор,Прохладный,44.9787444,37.7985083,True
Краснодарский край,Крымский район,село,Русское,44.9586583,37.8398194,True
Краснодарский край,Крымский район,хутор,Садовый,45.0158389,37.7503139,True
Краснодарский край,Крымский район,хутор,Садовый,45.015375,37.906833,True
Краснодарский край,Крымский район,посёлок,Саук-Дере,44.9035417,37.8885722,True
Краснодарский край,Крымский район,хутор,Свет,45.0574611,37.6529056,True
Краснодарский край,Крымский район,хутор,Свобода,44.9545139,37.9023028,True
Краснодарский край,Крымский район,хутор,Семенцовка,44.8382722,38.0067417,True
Краснодарский край,Крымский район,хутор,Тетерятник,45.1421306,37.8420472,True
Краснодарский край,Крымский район,станица,Троицкая,45.1347694,38.122528,True
Краснодарский край,Крымский район,хутор,Трудовой,45.01778,37.83278,True
Краснодарский край,Крымский район,село,Ударное,45.06056,37.86028,True
Краснодарский край,Крымский район,хутор,Урма,45.14115,37.89075,True
Краснодарский край,Крымский район,село,Фадеево,45.066361,37.5544889,True
Краснодарский край,Крымский район,посёлок ж.д. разъезда,Чекон,45.127639,37.525083,True
Краснодарский край,Крымский район,хутор,Черноморский,44.9979361,38.031075,True
Краснодарский край,Крымский район,хутор,Шептальский,44.8710111,38.0175583,True
Краснодарский край,Крымский район,хутор,Шибик,44.84694,38.04028,True
Краснодарский край,Крымский район,хутор,Школьный,45.0345639,37.6174944,True
Краснодарский край,Крымский район,село,Экономическое,44.9914139,37.9409861,True
Краснодарский край,Крымский район,посёлок,Южный,45.025889,38.0815944,True
Краснодарский край,Крымский район,хутор,Ястребовский,44.928528,38.1281083,True
Краснодарский край,Курганинский район,посёлок,Андрее-Дмитриевский,44.9504083,40.8427194,True
Краснодарский край,Курганинский район,посёлок,Весёлый,44.957972,40.5334028,True
Краснодарский край,Курганинский район,станица,Воздвиженская,45.12778,40.15167,True
Краснодарский край,Курганинский район,посёлок,Восточный,45.0249806,40.7486194,True
Краснодарский край,Курганинский район,посёлок,Высокий,44.78556,40.91056,True
Краснодарский край,Курганинский район,посёлок,Комсомольский,45.0498472,40.6598361,True
Краснодарский край,Курганинский район,станица,Константиновская,44.83139,40.725,True
Краснодарский край,Курганинский район,хутор,Кочергин,44.9359528,40.7874389,True
Краснодарский край,Курганинский район,хутор,Красное Знамя,45.007175,40.5239583,True
Краснодарский край,Курганинский район,посёлок,Красное Поле,44.901325,40.6916056,True
Краснодарский край,Курганинский район,посёлок,Красный,45.0381194,40.5651556,True
Краснодарский край,Курганинский район,город,Курганинск,44.88333,40.6,True
Краснодарский край,Курганинский район,посёлок,Лучезарный,44.9847806,40.4554694,True
Краснодарский край,Курганинский район,посёлок,Мира,45.0281806,40.7161417,True
Краснодарский край,Курганинский район,хутор,Михайлов,44.9499194,40.828475,True
Краснодарский край,Курганинский район,станица,Михайловская,44.9959,40.5995,True
Краснодарский край,Курганинский район,станица,Новоалексеевская,44.8251,40.9182,True
Краснодарский край,Курганинский район,посёлок,Октябрьский,45.0722306,40.7082444,True
Краснодарский край,Курганинский район,посёлок,Первомайский,45.1093972,40.5889611,True
Краснодарский край,Курганинский район,станица,Петропавловская,45.0782722,40.4516333,True
Краснодарский край,Курганинский район,станица,Родниковская,44.7647806,40.6606778,True
Краснодарский край,Курганинский район,хутор,Светлая Заря,44.9597194,40.7389528,True
Краснодарский край,Курганинский район,хутор,Свобода,44.9159639,40.7410444,True
Краснодарский край,Курганинский район,посёлок,Северный,45.1056472,40.6552833,True
Краснодарский край,Курганинский район,посёлок,Северный,45.1247889,40.502475,True
Краснодарский край,Курганинский район,хутор,Сеятель,44.9509028,40.5437028,True
Краснодарский край,Курганинский район,посёлок,Степной,44.8856194,40.8212,True
Краснодарский край,Курганинский район,хутор,Сухой Кут,45.1248556,40.2124667,True
Краснодарский край,Курганинский район,станица,Темиргоевская,45.11667,40.28139,True
Краснодарский край,Курганинский район,село,Урмия,44.85444,40.85861,True
Краснодарский край,Курганинский район,посёлок,Щебенозаводской,44.9266167,40.8408583,True
Краснодарский край,Курганинский район,хутор,Южный,44.992825,40.4817278,True
Краснодарский край,Кущёвский район,село,Александровка,46.6416056,39.7579556,True
Краснодарский край,Кущёвский район,село,Алексеевское,46.751694,39.7117056,True
Краснодарский край,Кущёвский район,хутор,Благополучненский,46.675,39.44167,True
Краснодарский край,Кущёвский район,хутор,Большая Лопатина,46.64444,39.57833,True
Краснодарский край,Кущёвский район,село,Братское,46.6854083,40.001917,True
Краснодарский край,Кущёвский район,хутор,Водяная Балка,46.72556,39.60417,True
Краснодарский край,Кущёвский район,хутор,Водяная Балка,46.73083,39.65222,True
Краснодарский край,Кущёвский район,хутор,Водянский,46.77889,39.50583,True
Краснодарский край,Кущёвский район,хутор,Воровского,46.6565,39.5871528,True
Краснодарский край,Кущёвский район,хутор,Восточный,46.5977472,39.5507611,True
Краснодарский край,Кущёвский район,хутор,Глебовка,46.6431556,39.991194,True
Краснодарский край,Кущёвский район,хутор,Гослесопитомник,46.65583,39.75167,True
Краснодарский край,Кущёвский район,хутор,Гудко-Лиманский,46.619278,39.434375,True
Краснодарский край,Кущёвский район,посёлок,Заветы Ильича,46.4974972,39.4412,True
Краснодарский край,Кущёвский район,посёлок,Заводской,46.6354556,39.4693917,True
Краснодарский край,Кущёвский район,хутор,Звёздочка,46.7756917,39.5725806,True
Краснодарский край,Кущёвский район,хутор,Зелёная Роща,46.7604778,39.8103306,True
Краснодарский край,Кущёвский район,хутор,Знамя Коммунизма,46.4652167,39.5475028,True
Краснодарский край,Кущёвский район,село,Ивано-Слюсаревское,46.6584306,39.751525,True
Краснодарский край,Кущёвский район,село,Ильинское,46.66667,39.83333,True
Краснодарский край,Кущёвский район,хутор,Исаевский,46.7111694,39.5225611,True
Краснодарский край,Кущёвский район,хутор,Калининский,46.6969,39.2880111,True
Краснодарский край,Кущёвский район,хутор,Картушина Балка,46.6276,39.62389,True
Краснодарский край,Кущёвский район,посёлок,Кисляковка,46.392725,39.6029556,True
Краснодарский край,Кущёвский район,станица,Кисляковская,46.43417,39.67778,True
Краснодарский край,Кущёвский район,посёлок,Коммунар,46.53056,39.94472,True
Краснодарский край,Кущёвский район,посёлок,Комсомольский,46.4974972,39.3893583,True
Краснодарский край,Кущёвский район,посёлок,Красная Заря,46.4354694,39.5332611,True
Краснодарский край,Кущёвский район,хутор,Красная Поляна,46.65778,39.37028,True
Краснодарский край,Кущёвский район,хутор,Красная Слободка,46.7428028,39.9217361,True
Краснодарский край,Кущёвский район,село,Красное,46.73028,39.56056,True
Краснодарский край,Кущёвский район,хутор,Красное,46.730416,39.583149,True
Краснодарский край,Кущёвский район,хутор,Красный,46.7696639,39.2959639,True
Краснодарский край,Кущёвский район,хутор,Красный,46.5968972,39.4023806,True
Краснодарский край,Кущёвский район,хутор,Крутоярский,46.76472,39.9840694,True
Краснодарский край,Кущёвский район,посёлок,Кубанец,46.4542944,39.3615111,True
Краснодарский край,Кущёвский район,станица,Кущёвская,46.56556,39.62889,True
Краснодарский край,Кущёвский район,хутор,Лопатина,46.64361,39.6,True
Краснодарский край,Кущёвский район,хутор,Майский,46.7928861,39.3644806,True
Краснодарский край,Кущёвский район,посёлок,Мирный,46.6135139,39.840325,True
Краснодарский край,Кущёвский район,посёлок,Набережный,46.5902667,39.4522278,True
Краснодарский край,Кущёвский район,хутор,Нардегин,46.591925,39.47935,True
Краснодарский край,Кущёвский район,хутор,Нижнеглебовка,46.65,39.89194,True
Краснодарский край,Кущёвский район,хутор,Новобатайский,46.6819972,39.8591917,True
Краснодарский край,Кущёвский район,хутор,Нововысоченский,46.78472,39.48472,True
Краснодарский край,Кущёвский район,село,Новоивановское,46.55389,39.77167,True
Краснодарский край,Кущёвский район,село,Новомихайловское,46.54028,39.85583,True
Краснодарский край,Кущёвский район,хутор,Новостепнянский,46.69306,39.52472,True
Краснодарский край,Кущёвский район,хутор,Новый Урожай,46.6776139,39.5537194,True
Краснодарский край,Кущёвский район,хутор,Объездная Балка,46.675889,39.6784639,True
Краснодарский край,Кущёвский район,посёлок,Октябрьский,46.33935,39.60745,True
Краснодарский край,Кущёвский район,хутор,Осенний,46.6512083,39.9503472,True
Краснодарский край,Кущёвский район,посёлок,Первомайский,46.4764472,39.5744111,True
Краснодарский край,Кущёвский район,хутор,Первомайский,46.6180944,39.4683639,True
Краснодарский край,Кущёвский район,хутор,Пионер,46.61694,39.48528,True
Краснодарский край,Кущёвский район,хутор,Подшкуринский,46.605889,39.3694222,True
Краснодарский край,Кущёвский район,хутор,Пролетарский,46.39167,39.537917,True
Краснодарский край,Кущёвский район,хутор,Полтавский,46.7030306,39.7307556,True
Краснодарский край,Кущёвский район,село,Полтавченское,46.7301833,40.0164861,True
Краснодарский край,Кущёвский район,село,Раздольное,46.7118917,39.665525,True
Краснодарский край,Кущёвский район,посёлок,Ровный,46.6091222,40.001917,True
Краснодарский край,Кущёвский район,посёлок,Садовый,46.6221333,39.7382444,True
Краснодарский край,Кущёвский район,посёлок,Северный,46.6751222,39.5717028,True
Краснодарский край,Кущёвский район,хутор,Семёновка,46.6655222,39.7288667,True
Краснодарский край,Кущёвский район,хутор,Серебрянка,46.7257111,40.0988861,True
Краснодарский край,Кущёвский район,хутор,Средние Чубурки,46.725,39.33722,True
Краснодарский край,Кущёвский район,село,Степное,46.64975,39.6750111,True
Краснодарский край,Кущёвский район,село,Таврическое,46.6882583,39.4784083,True
Краснодарский край,Кущёвский район,хутор,Тауруп Второй,46.7416139,39.5255944,True
Краснодарский край,Кущёвский район,хутор,Тауруп Первый,46.7583694,39.5245639,True
Краснодарский край,Кущёвский район,хутор,Федорянка,46.538816666667,39.945480555556,True
Краснодарский край,Кущёвский район,хутор,Цукерова Балка,46.76944,39.65944,True
Краснодарский край,Кущёвский район,хутор,Чекуновка,46.5359944,39.9285028,True
Краснодарский край,Кущёвский район,станица,Шкуринская,46.585,39.36389,True
Краснодарский край,Лабинский район,станица,Ахметовская,44.14972,41.05139,True
Краснодарский край,Лабинский район,хутор,Бочаров,44.6756361,41.0597167,True
Краснодарский край,Лабинский район,хутор,Братский,44.7079639,41.0442667,True
Краснодарский край,Лабинский район,посёлок,Весёлый,44.49639,41.08667,True
Краснодарский край,Лабинский район,хутор,Весёлый,44.4759306,40.9101222,True
Краснодарский край,Лабинский район,станица,Владимирская,44.54444,40.80417,True
Краснодарский край,Лабинский район,станица,Вознесенская,44.55028,41.02528,True
Краснодарский край,Лабинский район,село,Горное,44.11306,41.08667,True
Краснодарский край,Лабинский район,село,Гофицкое,44.25,40.96667,True
Краснодарский край,Лабинский район,станица,Ерёминская,44.59722,41.00667,True
Краснодарский край,Лабинский район,хутор,Заря,44.61235,41.1352,True
Краснодарский край,Лабинский район,станица,Зассовская,44.43222,40.81472,True
Краснодарский край,Лабинский район,станица,Каладжинская,44.30917,40.90694,True
Краснодарский край,Лабинский район,посёлок,Красный,44.5392361,41.1559889,True
Краснодарский край,Лабинский район,хутор,Лобода,44.7450639,40.8191583,True
Краснодарский край,Лабинский район,хутор,Лукин,44.6479306,41.0912306,True
Краснодарский край,Лабинский район,посёлок,Луч,44.6452611,40.8428667,True
Краснодарский край,Лабинский район,посёлок,Мирный,44.588861,40.8977972,True
Краснодарский край,Лабинский район,хутор,Некрасов,44.6837611,41.054225,True
Краснодарский край,Лабинский район,посёлок,Новолабинский,44.67333,40.90806,True
Краснодарский край,Лабинский район,село,Новый Мир,44.3194806,41.0059139,True
Краснодарский край,Лабинский район,станица,Отважная,44.2400028,41.0414,True
Краснодарский край,Лабинский район,хутор,Первая Синюха,44.64861,41.07278,True
Краснодарский край,Лабинский район,посёлок,Подгорный,44.4324194,40.9242333,True
Краснодарский край,Лабинский район,хутор,Привольный,44.4968361,40.883722,True
Краснодарский край,Лабинский район,посёлок,Розовый,44.4833694,41.0358833,True
Краснодарский край,Лабинский район,хутор,Северный,44.6179556,40.9249028,True
Краснодарский край,Лабинский район,хутор,Сельский Пахарь,44.540167,41.0934556,True
Краснодарский край,Лабинский район,хутор,Сладкий,44.4669,41.031075,True
Краснодарский край,Лабинский район,хутор,Соколихин,44.64583,40.94917,True
Краснодарский край,Лабинский район,посёлок,Соцгородок,44.4656056,40.7830917,True
Краснодарский край,Лабинский район,хутор,Тегин,44.10278,41.19667,True
Краснодарский край,Лабинский район,станица,Упорная,44.38333,41.01667,True
Краснодарский край,Лабинский район,хутор,Харьковский,44.4710472,41.1484083,True
Краснодарский край,Лабинский район,хутор,Хачивань,44.63583,40.96222,True
Краснодарский край,Лабинский район,хутор,Хлебодаровский,44.64361,40.97083,True
Краснодарский край,Лабинский район,станица,Чамлыкская,44.71667,40.86667,True
Краснодарский край,Лабинский район,станица,Чернореченская,44.23333,40.95,True
Краснодарский край,Ленинградский район,хутор,Андрющенко,46.185,39.43361,True
Краснодарский край,Ленинградский район,хутор,Белый,46.29528,39.59917,True
Краснодарский край,Ленинградский район,хутор,Березанский,46.30611,39.14833,True
Краснодарский край,Ленинградский район,посёлок,Бичевый,46.245,39.595,True
Краснодарский край,Ленинградский район,посёлок,Ближний,46.21639,39.16889,True
Краснодарский край,Ленинградский район,посёлок,Бурдатский,46.21778,39.57417,True
Краснодарский край,Ленинградский район,хутор,Восточный,46.27111,39.525,True
Краснодарский край,Ленинградский район,посёлок,Высотный,46.1230861,39.5771028,True
Краснодарский край,Ленинградский район,посёлок,Грачевка,46.22361,39.27222,True
Краснодарский край,Ленинградский район,хутор,Западный,46.3964222,39.3111222,True
Краснодарский край,Ленинградский район,посёлок,Звезда,46.19389,39.37,True
Краснодарский край,Ленинградский район,посёлок,Зерновой,46.2175,39.37944,True
Краснодарский край,Ленинградский район,посёлок,Изобильный,46.2125,39.185,True
Краснодарский край,Ленинградский район,хутор,Коржи,46.0225,39.28639,True
Краснодарский край,Ленинградский район,хутор,Краснострелецкий,46.17235,39.4903167,True
Краснодарский край,Ленинградский район,станица,Крыловская,46.10806,39.30833,True
Краснодарский край,Ленинградский район,хутор,Куликовский,46.3395778,39.56145,True
Краснодарский край,Ленинградский район,посёлок,Лаштованный,46.1938778,39.5434028,True
Краснодарский край,Ленинградский район,хутор,Ленина,46.1158972,39.493775,True
Краснодарский край,Ленинградский район,станица,Ленинградская,46.32111,39.39778,True
Краснодарский край,Ленинградский район,посёлок,Луговой,46.23306,39.32222,True
Краснодарский край,Ленинградский район,посёлок,Моторный,46.23417,39.24833,True
Краснодарский край,Ленинградский район,станица,Новоплатнировская,46.1,39.41667,True
Краснодарский край,Ленинградский район,посёлок,Образцовый,46.1067028,39.5497361,True
Краснодарский край,Ленинградский район,посёлок,Октябрьский,46.225,39.15139,True
Краснодарский край,Ленинградский район,посёлок,Первомайский,46.1930806,39.2959833,True
Краснодарский край,Ленинградский район,хутор,Реконструктор,46.24278,39.13361,True
Краснодарский край,Ленинградский район,хутор,Ромашки,46.3777083,39.2320639,True
Краснодарский край,Ленинградский район,посёлок,Смелый,46.24194,39.55056,True
Краснодарский край,Ленинградский район,посёлок,Солнечный,46.10875,39.5274778,True
Краснодарский край,Ленинградский район,посёлок,Трудовой,46.24444,39.60472,True
Краснодарский край,Ленинградский район,посёлок,Уманский,46.23583,39.26778,True
Краснодарский край,Ленинградский район,посёлок,Утро,46.21528,39.58694,True
Краснодарский край,Мостовский район,станица,Андрюки,44.12361,40.83667,True
Краснодарский край,Мостовский район,станица,Баговская,44.16667,40.6,True
Краснодарский край,Мостовский район,станица,Баракаевская,44.29056,40.52028,True
Краснодарский край,Мостовский район,село,Беноково,44.41917,40.67889,True
Краснодарский край,Мостовский район,станица,Бесленеевская,44.23,40.71167,True
Краснодарский край,Мостовский район,посёлок,Бугунжа,44.0819861,40.6519861,True
Краснодарский край,Мостовский район,посёлок,Бурный,44.0190861,40.724175,True
Краснодарский край,Мостовский район,хутор,Весёлый,44.378775,40.7557583,True
Краснодарский край,Мостовский район,посёлок,Восточный,44.592472,40.614222,True
Краснодарский край,Мостовский район,хутор,Высокий,44.3707722,40.7401361,True
Краснодарский край,Мостовский район,станица,Губская,44.31667,40.63333,True
Краснодарский край,Мостовский район,хутор,Дятлов,44.2689528,40.8780528,True
Краснодарский край,Мостовский район,село,Заречное,44.204494,40.856209,True
Краснодарский край,Мостовский район,хутор,Кизинка,44.19722,40.61333,True
Краснодарский край,Мостовский район,посёлок,Кировский,43.9477028,40.6912694,True
Краснодарский край,Мостовский район,станица,Костромская,44.515,40.59167,True
Краснодарский край,Мостовский район,хутор,Красный Гай,44.28083,40.88083,True
Краснодарский край,Мостовский район,хутор,Красный Кут,44.6026333,40.5789806,True
Краснодарский край,Мостовский район,станица,Махошевская,44.55,40.45,True
Краснодарский край,Мостовский район,пгт,Мостовской,44.41361,40.78972,True
Краснодарский край,Мостовский район,посёлок,Никитино,43.9721917,40.7131583,True
Краснодарский край,Мостовский район,хутор,Новотроицкий,44.616364,40.517624,True
Краснодарский край,Мостовский район,хутор,Первомайский,44.3806222,40.7402694,True
Краснодарский край,Мостовский район,посёлок,Перевалка,44.05,40.76,True
Краснодарский край,Мостовский район,станица,Переправная,44.333725,40.774389,True
Краснодарский край,Мостовский район,хутор,Пролетарский,44.357472,40.7092361,True
Краснодарский край,Мостовский район,пгт,Псебай,44.10917,40.79,True
Краснодарский край,Мостовский район,хутор,Садовый,44.364861,40.7633111,True
Краснодарский край,Мостовский район,хутор,Свободный Мир,44.28972,40.88194,True
Краснодарский край,Мостовский район,хутор,Северный,44.6325472,40.5597556,True
Краснодарский край,Мостовский район,хутор,Славянский,44.69611,40.51667,True
Краснодарский край,Мостовский район,село,Солёное,44.0458028,40.881889,True
Краснодарский край,Мостовский район,посёлок,Узловой,44.1376194,40.5962472,True
Краснодарский край,Мостовский район,хутор,Ульяново,44.5457,40.552889,True
Краснодарский край,Мостовский район,село,Унароково,44.742202,40.509555,True
Краснодарский край,Мостовский район,станица,Хамкетинская,44.3575,40.50278,True
Краснодарский край,Мостовский район,хутор,Центральный,44.3133417,40.8711861,True
Краснодарский край,Мостовский район,село,Шедок,44.219004,40.849384,True
Краснодарский край,Мостовский район,станица,Ярославская,44.613275,40.463225,True
Краснодарский край,Новокубанский район,станица,Бесскорбная,44.64889,41.29972,True
Краснодарский край,Новокубанский район,хутор,Большевик,45.1200472,40.9218417,True
Краснодарский край,Новокубанский район,хутор,Борвинок,45.1776806,40.9342472,True
Краснодарский край,Новокубанский район,посёлок,Весёлый,45.1337139,41.257575,True
Краснодарский край,Новокубанский район,посёлок,Восход,45.23222,40.97222,True
Краснодарский край,Новокубанский район,посёлок,Глубокий,44.9426778,41.0173361,True
Краснодарский край,Новокубанский район,хутор,Горькая Балка,45.100472,41.34,True
Краснодарский край,Новокубанский район,посёлок,Дальний,44.9930972,40.8273472,True
Краснодарский край,Новокубанский район,посёлок,Западный,45.0701222,40.8200139,True
Краснодарский край,Новокубанский район,посёлок,Зорька,45.0005111,40.8059278,True
Краснодарский край,Новокубанский район,хутор,Ивановский,45.13944,40.90639,True
Краснодарский край,Новокубанский район,хутор,Измайлов,44.9990333,40.9186917,True
Краснодарский край,Новокубанский район,село,Камышеваха,45.2106639,41.3160667,True
Краснодарский край,Новокубанский район,посёлок ж.д. разъезда,Кара-Джалга,44.970275,40.9583417,True
Краснодарский край,Новокубанский район,хутор,Каспаровский,44.8614083,40.9467861,True
Краснодарский край,Новокубанский район,хутор,Кирова,45.163569,40.902936,True
Краснодарский край,Новокубанский район,село,Ковалёвское,45.16667,41,True
Краснодарский край,Новокубанский район,посёлок,Комсомольский,45.2113361,40.8700056,True
Краснодарский край,Новокубанский район,станица,Косякинская,45.02,41.39472,True
Краснодарский край,Новокубанский район,посёлок ж.д. разъезда,Коцебу,45.1889889,40.9054528,True
Краснодарский край,Новокубанский район,хутор,Красная Звезда,45.2150944,41.0510333,True
Краснодарский край,Новокубанский район,хутор,Ленинский,45.072361,40.8749333,True
Краснодарский край,Новокубанский район,посёлок,Лесхоз,45.218417,41.019778,True
Краснодарский край,Новокубанский район,хутор,Ляпино,45.15275,41.1205111,True
Краснодарский край,Новокубанский район,хутор,Марьинский,45.0574,40.8909333,True
Краснодарский край,Новокубанский район,посёлок,Мирской,45.1610639,40.8554222,True
Краснодарский край,Новокубанский район,хутор,Нововоскресенский,44.60745,41.3727028,True
Краснодарский край,Новокубанский район,хутор,Новокарский,45.20694,41.13833,True
Краснодарский край,Новокубанский район,город,Новокубанск,45.1,41.05,True
Краснодарский край,Новокубанский район,село,Новосельское,44.8909694,41.0260694,True
Краснодарский край,Новокубанский район,посёлок,Первомайский,45.040167,41.22135,True
Краснодарский край,Новокубанский район,посёлок,Передовой,45.0623028,41.2671889,True
Краснодарский край,Новокубанский район,посёлок,Подлесный,44.73528,41.23333,True
Краснодарский край,Новокубанский район,посёлок,Прикубанский,45.0034028,41.1762556,True
Краснодарский край,Новокубанский район,посёлок,Прогресс,45.1939778,40.9791083,True
Краснодарский край,Новокубанский район,станица,Прочноокопская,45.06667,41.11667,True
Краснодарский край,Новокубанский район,посёлок,Пчела,44.9535778,40.939972,True
Краснодарский край,Новокубанский район,село,Радищево,44.87278,41.13667,True
Краснодарский край,Новокубанский район,хутор,Раздольный,44.8077694,41.0385361,True
Краснодарский край,Новокубанский район,хутор,Родниковский,44.71806,41.24361,True
Краснодарский край,Новокубанский район,хутор,Роте-Фане,45.1417917,40.8748778,True
Краснодарский край,Новокубанский район,хутор,Северокавказский,45.14556,41.06417,True
Краснодарский край,Новокубанский район,станица,Советская,44.776955,41.175703,True
Краснодарский край,Новокубанский район,хутор,Стебницкий,44.89975,41.1440944,True
Краснодарский край,Новокубанский район,посёлок,Степной,45.1567972,41.2198778,True
Краснодарский край,Новокубанский район,посёлок,Степной,45.1557722,41.220725,True
Краснодарский край,Новокубанский район,хутор,Тельмана,45.0950111,40.8434694,True
Краснодарский край,Новокубанский район,посёлок,Тёплый,45.0373778,40.8388361,True
Краснодарский край,Новокубанский район,хутор,Федоровский,45.0978278,40.9535361,True
Краснодарский край,Новокубанский район,хутор,Фортштадт,45.03139,41.14028,True
Краснодарский край,Новокубанский район,хутор,Шефкоммуна,45.1066778,40.989639,True
Краснодарский край,Новокубанский район,хутор,Энгельса,45.1255639,40.8496806,True
Краснодарский край,Новокубанский район,посёлок,Южный,44.674083,41.1532611,True
Краснодарский край,Новопокровский район,хутор,Балка Грузская,45.98333,40.275,True
Краснодарский край,Новопокровский район,посёлок,Восход,45.8170306,40.9111556,True
Краснодарский край,Новопокровский район,посёлок,Вперёд,45.884275,40.5396361,True
Краснодарский край,Новопокровский район,село,Горькая Балка,46.09278,40.68472,True
Краснодарский край,Новопокровский район,посёлок,Горький,46.018,40.755,True
Краснодарский край,Новопокровский район,хутор,Ея,45.993972,40.61361,True
Краснодарский край,Новопокровский район,посёлок,Животновод,45.8151972,40.6972472,True
Краснодарский край,Новопокровский район,посёлок,Заречный,45.8197583,40.6510722,True
Краснодарский край,Новопокровский район,посёлок,Заря,46.1123139,40.48861,True
Краснодарский край,Новопокровский район,станица,Ильинская,45.71667,40.71667,True
Краснодарский край,Новопокровский район,станица,Калниболотская,46,40.45,True
Краснодарский край,Новопокровский район,посёлок,Красноармейский,46.11417,40.39361,True
Краснодарский край,Новопокровский район,хутор,Красный Посёлок,46.03806,40.43972,True
Краснодарский край,Новопокровский район,посёлок,Кубанский,45.9298111,40.573625,True
Краснодарский край,Новопокровский район,посёлок,Лесничество,45.86722,40.61417,True
Краснодарский край,Новопокровский район,посёлок,Малокубанский,45.9867917,40.5653667,True
Краснодарский край,Новопокровский район,посёлок,Мирный,45.8187972,40.7462889,True
Краснодарский край,Новопокровский район,посёлок,Незамаевский,46.12028,40.3825,True
Краснодарский край,Новопокровский район,станица,Новоивановская,46.1725,40.48889,True
Краснодарский край,Новопокровский район,станица,Новопокровская,45.95333,40.70694,True
Краснодарский край,Новопокровский район,посёлок,Новопокровский,45.8376694,40.7710889,True
Краснодарский край,Новопокровский район,хутор,Новый Мир,46.1237,40.6293722,True
Краснодарский край,Новопокровский район,посёлок,Октябрьский,46.1399861,40.3910083,True
Краснодарский край,Новопокровский район,посёлок,Первомайский,46.2008778,40.38665,True
Краснодарский край,Новопокровский район,станица,Плоская,46.224361,40.6151639,True
Краснодарский край,Новопокровский район,посёлок,Садовый,46.1473278,40.345194,True
Краснодарский край,Новопокровский район,посёлок,Северный,46.0253111,40.5715361,True
Краснодарский край,Новопокровский район,посёлок,Советский,46.00778,40.56389,True
Краснодарский край,Новопокровский район,посёлок,Степной,45.82028,40.78889,True
Краснодарский край,Новопокровский район,посёлок,Урожайный,45.76815,40.5240722,True
Краснодарский край,Новопокровский район,хутор,Хлебороб,46.0481972,40.632806,True
Краснодарский край,Новопокровский район,посёлок,Южный,45.8111167,40.5386083,True
Краснодарский край,Отрадненский район,хутор,Байбарис,44.09306,41.31972,True
Краснодарский край,Отрадненский район,станица,Бесстрашная,44.24861,41.14389,True
Краснодарский край,Отрадненский район,хутор,Бережиновский,44.57444,41.41139,True
Краснодарский край,Отрадненский район,село,Благодарное,44.5025,41.545,True
Краснодарский край,Отрадненский район,хутор,Весёлый,44.5321167,41.5402417,True
Краснодарский край,Отрадненский район,посёлок,Весёлый,44.2803778,41.233875,True
Краснодарский край,Отрадненский район,село,Воскресенское,44.5110917,41.4601972,True
Краснодарский край,Отрадненский район,хутор,Гоголевский,44.5374028,41.5351972,True
Краснодарский край,Отрадненский район,село,Гусаровское,44.59389,41.41111,True
Краснодарский край,Отрадненский район,посёлок,Донской,44.3583639,41.3627444,True
Краснодарский край,Отрадненский район,хутор,Зеленчук Мостовой,44.25417,41.72278,True
Краснодарский край,Отрадненский район,село,Изобильное,44.4898639,41.2141889,True
Краснодарский край,Отрадненский район,хутор,Ильич,44.0818833,41.3672444,True
Краснодарский край,Отрадненский район,хутор,Красные Горы,44.2423833,41.5590194,True
Краснодарский край,Отрадненский район,хутор,Кубрань,44.475,41.7,True
Краснодарский край,Отрадненский район,хутор,Лазарчук,44.2027639,41.5392111,True
Краснодарский край,Отрадненский район,хутор,Ленина,44.3090611,41.5635694,True
Краснодарский край,Отрадненский район,станица,Малотенгинская,44.28333,41.53333,True
Краснодарский край,Отрадненский район,посёлок,Маяк,44.3189389,41.3222333,True
Краснодарский край,Отрадненский район,станица,Надёжная,44.2,41.4,True
Краснодарский край,Отрадненский район,хутор,Новоурупский,44.3705722,41.5559056,True
Краснодарский край,Отрадненский район,село,Новосинюхинское,44.4674,41.2893,True
Краснодарский край,Отрадненский район,станица,Отрадная,44.396333,41.525222,True
Краснодарский край,Отрадненский район,хутор,Отрадо-Солдатский,44.37694,41.32917,True
Краснодарский край,Отрадненский район,посёлок,Отрадо-Тенгинский,44.295,41.45389,True
Краснодарский край,Отрадненский район,посёлок,Пенькозавод,44.1526083,41.5244472,True
Краснодарский край,Отрадненский район,станица,Передовая,44.1174972,41.4760389,True
Краснодарский край,Отрадненский район,село,Петровское,44.4749306,41.6636028,True
Краснодарский край,Отрадненский район,село,Пискуновское,44.5696806,41.520778,True
Краснодарский край,Отрадненский район,станица,Подгорная,44.2141083,41.2798667,True
Краснодарский край,Отрадненский район,станица,Подгорная Синюха,44.3754806,41.2123694,True
Краснодарский край,Отрадненский район,хутор,Покровский,44.382417,41.53778,True
Краснодарский край,Отрадненский район,станица,Попутная,44.51667,41.43333,True
Краснодарский край,Отрадненский район,хутор,Розановский,44.5630528,41.5197472,True
Краснодарский край,Отрадненский район,хутор,Романчуков,44.22005,41.5464222,True
Краснодарский край,Отрадненский район,село,Рудь,44.4596361,41.21855,True
Краснодарский край,Отрадненский район,хутор,Садовый,44.4525,41.5025,True
Краснодарский край,Отрадненский район,хутор,Саньков,44.271583,41.5775778,True
Краснодарский край,Отрадненский район,посёлок,Светлый,44.4725389,41.5283306,True
Краснодарский край,Отрадненский район,хутор,Солдатская Балка,44.36472,41.29667,True
Краснодарский край,Отрадненский район,станица,Спокойная,44.24889,41.39667,True
Краснодарский край,Отрадненский район,станица,Спокойная Синюха,44.38306,41.24972,True
Краснодарский край,Отрадненский район,хутор,Столяров,44.2277028,41.5532861,True
Краснодарский край,Отрадненский район,хутор,Стуканов,44.2395528,41.5402417,True
Краснодарский край,Отрадненский район,хутор,Стукановский,44.5445028,41.5190611,True
Краснодарский край,Отрадненский район,хутор,Трактовый,44.5892417,41.3810083,True
Краснодарский край,Отрадненский район,хутор,Троицкий,44.5276722,41.4530028,True
Краснодарский край,Отрадненский район,станица,Удобная,44.2,41.55,True
Краснодарский край,Отрадненский район,хутор,Удобно-Зеленчукский,44.20556,41.705,True
Краснодарский край,Отрадненский район,хутор,Удобно-Покровский,44.31778,41.67278,True
Краснодарский край,Отрадненский район,хутор,Улановский,44.55505,41.4387472,True
Краснодарский край,Отрадненский район,посёлок,Урупский,44.4528694,41.5746778,True
Краснодарский край,Отрадненский район,хутор,Хлопонин,44.2904083,41.5787472,True
Краснодарский край,Отрадненский район,хутор,Хорин,44.49,41.29278,True
Краснодарский край,Отрадненский район,хутор,Чайкин,44.50611,41.59389,True
Краснодарский край,Отрадненский район,хутор,Чехрак,44.15833,41.66472,True
Краснодарский край,Отрадненский район,посёлок,Южный,44.42417,41.575,True
Краснодарский край,Павловский район,станица,Атаманская,46.16667,39.61667,True
Краснодарский край,Павловский район,хутор,Бальчанский,46.0903028,39.5433167,True
Краснодарский край,Павловский район,хутор,Бейсужек,45.8920917,39.53535,True
Краснодарский край,Павловский район,станица,Весёлая,46.16667,40.08333,True
Краснодарский край,Павловский район,хутор,Весёлая Жизнь,46.2233389,39.8286444,True
Краснодарский край,Павловский район,посёлок,Западный,46.1196139,39.9810611,True
Краснодарский край,Павловский район,село,Краснопартизанское,46.0734833,39.7777472,True
Краснодарский край,Павловский район,хутор,Красный,46.0752,40.0769139,True
Краснодарский край,Павловский район,хутор,Ленинодар,45.98139,39.58528,True
Краснодарский край,Павловский район,хутор,Междуреченский,46.09111,39.67417,True
Краснодарский край,Павловский район,посёлок,Набережный,46.0345667,39.6587917,True
Краснодарский край,Павловский район,станица,Незамаевская,46.16389,40.28,True
Краснодарский край,Павловский район,станица,Новолеушковская,46,39.98333,True
Краснодарский край,Павловский район,станица,Новопетровская,46.21667,39.93333,True
Краснодарский край,Павловский район,станица,Новопластуновская,46.06139,39.60583,True
Краснодарский край,Павловский район,хутор,Новый,46.1072083,39.9316222,True
Краснодарский край,Павловский район,хутор,Новый Урал,46.06167,39.63861,True
Краснодарский край,Павловский район,посёлок,Октябрьский,45.98,39.62444,True
Краснодарский край,Павловский район,станица,Павловская,46.13333,39.76667,True
Краснодарский край,Павловский район,хутор,Первомайский,46.01306,39.85222,True
Краснодарский край,Павловский район,хутор,Пушкина,46.0489833,39.8270194,True
Краснодарский край,Павловский район,посёлок,Свободный,46.1320389,40.0504139,True
Краснодарский край,Павловский район,посёлок,Северный,46.1224889,40.0737583,True
Краснодарский край,Павловский район,хутор,Средний Челбас,45.9475333,39.551675,True
Краснодарский край,Павловский район,станица,Старолеушковская,45.98333,39.76667,True
Краснодарский край,Павловский район,станица,Украинская,45.9413028,39.8249611,True
Краснодарский край,Павловский район,хутор,Упорный,46.1425389,39.9817472,True
Краснодарский край,Павловский район,хутор,Шевченко,46.1697389,39.7270861,True
Краснодарский край,Павловский район,посёлок,Южный,45.931722,39.6340722,True
Краснодарский край,Приморско-Ахтарский район,хутор,Аджановка,45.96722,38.29222,True
Краснодарский край,Приморско-Ахтарский район,посёлок,Ахтарский,46.0036222,38.3489361,True
Краснодарский край,Приморско-Ахтарский район,хутор,Батога,45.82254,38.46881,True
Краснодарский край,Приморско-Ахтарский район,хутор,Бейсуг,45.9226056,38.711525,True
Краснодарский край,Приморско-Ахтарский район,станица,Бородинская,46.10389,38.255,True
Краснодарский край,Приморско-Ахтарский район,посёлок,Бригадный,45.9892722,38.2644778,True
Краснодарский край,Приморско-Ахтарский район,станица,Бриньковская,46.03444,38.58694,True
Краснодарский край,Приморско-Ахтарский район,хутор,Возрождение,45.9645194,38.6901194,True
Краснодарский край,Приморско-Ахтарский район,хутор,Добровольный,45.8991056,38.5744472,True
Краснодарский край,Приморско-Ахтарский район,хутор,Занко,45.89611,38.39278,True
Краснодарский край,Приморско-Ахтарский район,хутор,имени Тамаровского,46.0648583,38.403444,True
Краснодарский край,Приморско-Ахтарский район,хутор,Красный,45.8118778,38.2960333,True
Краснодарский край,Приморско-Ахтарский район,хутор,Красный Конь,45.76361,38.02611,True
Краснодарский край,Приморско-Ахтарский район,хутор,Крупской,45.8732111,38.5071167,True
Краснодарский край,Приморско-Ахтарский район,хутор,Курчанский,45.9729972,38.3610389,True
Краснодарский край,Приморско-Ахтарский район,хутор,Лотос,45.8466778,38.3270444,True
Краснодарский край,Приморско-Ахтарский район,посёлок,Максима Горького,45.7832194,38.5625222,True
Краснодарский край,Приморско-Ахтарский район,хутор,Морозовский,46.145083,38.2312639,True
Краснодарский край,Приморско-Ахтарский район,хутор,Новонекрасовский,45.8747528,38.2722861,True
Краснодарский край,Приморско-Ахтарский район,хутор,Новопокровский,45.9155083,38.2401361,True
Краснодарский край,Приморско-Ахтарский район,хутор,Новые Лиманокирпили,45.8318,38.3492472,True
Краснодарский край,Приморско-Ахтарский район,посёлок,Огородный,45.9499917,38.1783361,True
Краснодарский край,Приморско-Ахтарский район,посёлок,Октябрьский,45.9562361,38.4802917,True
Краснодарский край,Приморско-Ахтарский район,станица,Ольгинская,45.9425694,38.5532944,True
Краснодарский край,Приморско-Ахтарский район,станица,Приазовская,45.8437194,38.6104972,True
Краснодарский край,Приморско-Ахтарский район,село,Пригородное,45.7647056,38.6135472,True
Краснодарский край,Приморско-Ахтарский район,посёлок,Приморский,46.0569389,38.31275,True
Краснодарский край,Приморско-Ахтарский район,город,Приморско-Ахтарск,46.05,38.18333,True
Краснодарский край,Приморско-Ахтарский район,хутор,Садки,45.94005,38.102806,True
Краснодарский край,Приморско-Ахтарский район,хутор,Свободный,45.94139,38.3681611,True
Краснодарский край,Приморско-Ахтарский район,хутор,Старые Лиманокирпили,45.774725,38.3227056,True
Краснодарский край,Приморско-Ахтарский район,станица,Степная,45.758901,38.450089,True
Краснодарский край,Приморско-Ахтарский район,хутор,Хорошилов,45.95528,38.403222,True
Краснодарский край,Приморско-Ахтарский район,посёлок,Центральный,45.8143528,38.5544944,True
Краснодарский край,Приморско-Ахтарский район,село,Ягодное,45.9832722,38.6464611,True
Краснодарский край,Северский район,посёлок,8 Марта,44.8855306,38.6727111,True
Краснодарский край,Северский район,станица,Азовская,44.8,38.61667,True
Краснодарский край,Северский район,хутор,Александровский,45.0395361,38.57417,True
Краснодарский край,Северский район,хутор,Ананьевский,45.0106806,38.5512139,True
Краснодарский край,Северский район,пгт,Афипский,44.9,38.83333,True
Краснодарский край,Северский район,хутор,Бончковский,44.891575,38.7578472,True
Краснодарский край,Северский район,хутор,Бондаренко,44.88167,38.740972,True
Краснодарский край,Северский район,хутор,Весёлый,44.87167,38.49361,True
Краснодарский край,Северский район,хутор,Водокачка,44.8775,38.8475,True
Краснодарский край,Северский район,хутор,Воликов,44.869806,38.728194,True
Краснодарский край,Северский район,хутор,Восточный,44.8574417,38.8499889,True
Краснодарский край,Северский район,станица,Григорьевская,44.77361,38.83778,True
Краснодарский край,Северский район,станица,Дербентская,44.76667,38.5,True
Краснодарский край,Северский район,пгт,Ильский,44.85444,38.57028,True
Краснодарский край,Северский район,станица,Калужская,44.76667,38.96667,True
Краснодарский край,Северский район,хутор,Карский,44.82694,38.50972,True
Краснодарский край,Северский район,хутор,Кипячий,44.81944,38.49056,True
Краснодарский край,Северский район,хутор,Коваленко,44.937306,38.7551889,True
Краснодарский край,Северский район,хутор,Кошарский,44.93833,38.71472,True
Краснодарский край,Северский район,хутор,Красный,44.94333,38.56944,True
Краснодарский край,Северский район,станица,Крепостная,44.71167,38.68361,True
Краснодарский край,Северский район,село,Львовское,44.99417,38.63528,True
Краснодарский край,Северский район,посёлок,Мирный,44.61528,38.74583,True
Краснодарский край,Северский район,село,Михайловское,45.00889,38.50694,True
Краснодарский край,Северский район,хутор,Науменков,44.8681361,38.7603778,True
Краснодарский край,Северский район,посёлок,Нефтекачка,44.88306,38.79194,True
Краснодарский край,Северский район,хутор,Новоалексеевский,44.80806,38.7025,True
Краснодарский край,Северский район,станица,Новодмитриевская,44.83361,38.8725,True
Краснодарский край,Северский район,хутор,Новоивановский,44.96333,38.55778,True
Краснодарский край,Северский район,посёлок,Новопетровский,44.90389,38.50083,True
Краснодарский край,Северский район,хутор,Новый,44.84472,38.94139,True
Краснодарский край,Северский район,хутор,Оазис,44.83861,38.95667,True
Краснодарский край,Северский район,посёлок,Октябрьский,44.84806,38.47444,True
Краснодарский край,Северский район,хутор,Песчаный,44.94889,38.62889,True
Краснодарский край,Северский район,посёлок,Планческая Щель,44.6359639,38.6147083,True
Краснодарский край,Северский район,посёлок,Предгорный,44.87806,38.78667,True
Краснодарский край,Северский район,хутор,Свободный,44.82694,38.71889,True
Краснодарский край,Северский район,станица,Северская,44.85,38.66667,True
Краснодарский край,Северский район,станица,Смоленская,44.78583,38.79806,True
Краснодарский край,Северский район,посёлок,Спутник,44.86417,38.46889,True
Краснодарский край,Северский район,станица,Ставропольская,44.716,38.8253028,True
Краснодарский край,Северский район,хутор,Стефановский,45.0585972,38.667525,True
Краснодарский край,Северский район,село,Тхамаха,44.6027361,38.8586556,True
Краснодарский край,Северский район,станица,Убинская,44.74,38.5425,True
Краснодарский край,Северский район,пгт,Черноморский,44.84833,38.495,True
Краснодарский край,Северский район,посёлок,Чибий,44.68806,38.98139,True
Краснодарский край,Северский район,село,Шабановское,44.56778,38.81056,True
Краснодарский край,Северский район,хутор,Шуваев,44.8748139,38.916425,True
Краснодарский край,Славянский район,станица,Анастасиевская,45.2175,37.89111,True
Краснодарский край,Славянский район,село,Ачуево,45.71028,37.77528,True
Краснодарский край,Славянский район,хутор,Бараниковский,45.34417,38.02028,True
Краснодарский край,Славянский район,хутор,Беликов,45.4943833,37.9690472,True
Краснодарский край,Славянский район,хутор,Верхний,45.48056,37.7225,True
Краснодарский край,Славянский район,посёлок,Вишнёвый,45.2792028,38.0645056,True
Краснодарский край,Славянский район,хутор,Водный,45.44444,38.05472,True
Краснодарский край,Славянский район,хутор,Галицын,45.4783694,38.0462722,True
Краснодарский край,Славянский район,посёлок,Голубая Нива,45.663083,37.8510889,True
Краснодарский край,Славянский район,хутор,Губернаторский,45.33861,37.965,True
Краснодарский край,Славянский район,хутор,Деревянковка,45.6572083,38.0850111,True
Краснодарский край,Славянский район,посёлок,Забойский,45.5681889,38.0841222,True
Краснодарский край,Славянский район,хутор,Калабатка,45.576472,37.7256056,True
Краснодарский край,Славянский район,посёлок,Кирпичный,45.243194,38.038278,True
Краснодарский край,Славянский район,хутор,Колесников,45.1686278,38.1973778,True
Краснодарский край,Славянский район,хутор,Коржевский,45.19333,37.71944,True
Краснодарский край,Славянский район,хутор,Красноармейский Городок,45.54167,38.06139,True
Краснодарский край,Славянский район,хутор,Маевский,45.1683806,38.1629222,True
Краснодарский край,Славянский район,хутор,Мостовянский,45.58167,37.75417,True
Краснодарский край,Славянский район,посёлок,МТФ-8 колхоза «Путь к коммунизму»,45.23722,37.994,True
Краснодарский край,Славянский район,хутор,Нещадимовский,45.38335,38.0176028,True
Краснодарский край,Славянский район,станица,Петровская,45.43333,37.95,True
Краснодарский край,Славянский район,село,Погорелово,45.473833,38.0109139,True
Краснодарский край,Славянский район,посёлок,Прибрежный,45.3054361,38.0889333,True
Краснодарский край,Славянский район,хутор,Прикубанский,45.1539111,37.7953583,True
Краснодарский край,Славянский район,хутор,Прикубанский,45.16417,38.08528,True
Краснодарский край,Славянский район,хутор,Прорвенский,45.52795,37.7037417,True
Краснодарский край,Славянский район,посёлок,Рисовый,45.2940722,37.9053167,True
Краснодарский край,Славянский район,посёлок,Садовый,45.3150333,38.0548528,True
Краснодарский край,Славянский район,хутор,Семисводный,45.2983722,37.972083,True
Краснодарский край,Славянский район,хутор,Сербин,45.1778639,38.2004194,True
Краснодарский край,Славянский район,хутор,Слободка,45.6722417,37.8168972,True
Краснодарский край,Славянский район,хутор,Соболевский,45.1475,38.01972,True
Краснодарский край,Славянский район,посёлок,Совхозный,45.2945528,38.1132722,True
Краснодарский край,Славянский район,хутор,Солодковский,45.5657722,38.0389778,True
Краснодарский край,Славянский район,хутор,Ставки,45.6025194,37.7274278,True
Краснодарский край,Славянский район,посёлок,Степной,45.2857389,38.027806,True
Краснодарский край,Славянский район,хутор,Троицкий,45.1432361,38.1344,True
Краснодарский край,Славянский район,хутор,Урма,45.142675,37.8912306,True
Краснодарский край,Славянский район,хутор,Ханьков,45.1613806,37.8720028,True
Краснодарский край,Славянский район,посёлок,Целинный,45.5580417,37.9611917,True
Краснодарский край,Славянский район,станица,Черноерковская,45.4325,37.76639,True
Краснодарский край,Славянский район,хутор,Чёрный Ерик,45.5866472,37.7367472,True
Краснодарский край,Славянский район,хутор,Шапарской,45.16889,37.69444,True
Краснодарский край,Староминский район,хутор,Весёлый,46.47111,39.19694,True
Краснодарский край,Староминский район,посёлок,Восточный,46.4002667,39.144139,True
Краснодарский край,Староминский район,хутор,Восточный Сосык,46.44472,39.21972,True
Краснодарский край,Староминский район,посёлок,Дальний,46.3587889,39.1276611,True
Краснодарский край,Староминский район,хутор,Ейский,46.60875,39.2485111,True
Краснодарский край,Староминский район,хутор,Жёлтые Копани,46.405306,38.8736,True
Краснодарский край,Староминский район,хутор,Западный Сосык,46.4553778,39.1925,True
Краснодарский край,Староминский район,посёлок,Заря,46.3954583,39.0492083,True
Краснодарский край,Староминский район,станица,Канеловская,46.58806,39.18917,True
Краснодарский край,Староминский район,хутор,Мирный,46.4895333,39.2062194,True
Краснодарский край,Староминский район,хутор,Набережный,46.48722,39.19667,True
Краснодарский край,Староминский район,станица,Новоясенская,46.48611,38.78889,True
Краснодарский край,Староминский район,посёлок,Орлово-Кубанский,46.6778306,39.2282611,True
Краснодарский край,Староминский район,посёлок,Первомайский,46.4490917,39.0652806,True
Краснодарский край,Староминский район,село,Первомайское,46.6445444,39.2344417,True
Краснодарский край,Староминский район,посёлок,Придорожный,46.410425,39.006475,True
Краснодарский край,Староминский район,посёлок,Рассвет,46.420875,39.0928278,True
Краснодарский край,Староминский район,станица,Староминская,46.53333,39.05,True
Краснодарский край,Староминский район,хутор,Сторожи Вторые,46.45167,39.215,True
Краснодарский край,Староминский район,хутор,Сторожи Первые,46.44306,39.23083,True
Краснодарский край,Староминский район,хутор,Ясени,46.5070139,38.84775,True
Краснодарский край,Тбилисский район,станица,Алексее-Тенгинская,45.20722,40.18056,True
Краснодарский край,Тбилисский район,село,Ванновское,45.32472,40.23028,True
Краснодарский край,Тбилисский район,хутор,Верёвкин,45.2164083,40.3540861,True
Краснодарский край,Тбилисский район,хутор,Верхний,45.2035167,40.160972,True
Краснодарский край,Тбилисский район,хутор,Весёлый,45.2638417,40.2976833,True
Краснодарский край,Тбилисский район,посёлок,Восточный,45.4316278,40.2710222,True
Краснодарский край,Тбилисский район,станица,Геймановская,45.26889,40.20778,True
Краснодарский край,Тбилисский район,посёлок,Горский,45.3616972,40.0655722,True
Краснодарский край,Тбилисский район,хутор,Дальний,45.2749361,40.1671167,True
Краснодарский край,Тбилисский район,хутор,Долинов,45.2751833,40.1143028,True
Краснодарский край,Тбилисский район,хутор,Дубовиков,45.2725694,40.1407944,True
Краснодарский край,Тбилисский район,хутор,Екатеринославский,45.3421056,40.1670972,True
Краснодарский край,Тбилисский район,хутор,Ерёмин,45.54611,40.03278,True
Краснодарский край,Тбилисский район,хутор,Зайчанский,45.263825,40.0900667,True
Краснодарский край,Тбилисский район,хутор,Зиссермановский,45.2817472,40.1814222,True
Краснодарский край,Тбилисский район,хутор,Зубов,45.2600417,40.0748833,True
Краснодарский край,Тбилисский район,хутор,Ивановка,45.552306,40.1368,True
Краснодарский край,Тбилисский район,хутор,Красный Зеленчук,45.278306,40.3443417,True
Краснодарский край,Тбилисский район,станица,Ловлинская,45.51667,40.21667,True
Краснодарский край,Тбилисский район,хутор,Марьинский,45.2785861,40.1311139,True
Краснодарский край,Тбилисский район,посёлок,Мирный,45.4983306,39.9723556,True
Краснодарский край,Тбилисский район,станица,Новобекешевская,45.55694,40.16528,True
Краснодарский край,Тбилисский район,станица,Нововладимировская,45.545,40.14028,True
Краснодарский край,Тбилисский район,хутор,Нововладимировский,45.5461472,40.1258833,True
Краснодарский край,Тбилисский район,хутор,Новопеховский Первый,45.3383139,40.3278083,True
Краснодарский край,Тбилисский район,посёлок,Октябрьский,45.4640639,40.127056,True
Краснодарский край,Тбилисский район,посёлок,Первомайский,45.4582972,40.1828778,True
Краснодарский край,Тбилисский район,хутор,Песчаный,45.2554278,40.3683083,True
Краснодарский край,Тбилисский район,хутор,Причтовый,45.1977139,40.1815306,True
Краснодарский край,Тбилисский район,хутор,Ромашевка,45.5474917,40.0808361,True
Краснодарский край,Тбилисский район,хутор,Северин,45.3467556,40.2110722,True
Краснодарский край,Тбилисский район,хутор,Северокубанский,45.328972,40.2822389,True
Краснодарский край,Тбилисский район,хутор,Советский,45.2599583,40.2777361,True
Краснодарский край,Тбилисский район,хутор,Соколовка,45.55194,40.12,True
Краснодарский край,Тбилисский район,хутор,Средний,45.201583,40.1312889,True
Краснодарский край,Тбилисский район,хутор,Староармянский,45.266861,40.3647583,True
Краснодарский край,Тбилисский район,станица,Тбилисская,45.36667,40.2,True
Краснодарский край,Тбилисский район,посёлок,Терновый,45.4585,40.0138583,True
Краснодарский край,Тбилисский район,хутор,Терско-Каламбетский,45.3237944,40.1078278,True
Краснодарский край,Тбилисский район,хутор,Чернобабов,45.5484139,40.1027556,True
Краснодарский край,Тбилисский район,хутор,Шевченко,45.3241611,40.251639,True
Краснодарский край,Тбилисский район,село,Шереметьевское,45.3256222,40.2009306,True
Краснодарский край,Темрюкский район,посёлок,Артющенко,45.13472,36.81361,True
Краснодарский край,Темрюкский район,станица,Ахтанизовская,45.32111,37.10472,True
Краснодарский край,Темрюкский район,посёлок,Батарейка,45.39278,36.82778,True
Краснодарский край,Темрюкский район,хутор,Белый,45.168944,37.2677111,True
Краснодарский край,Темрюкский район,посёлок,Береговой,45.3556333,36.8195333,True
Краснодарский край,Темрюкский район,посёлок,Веселовка,45.128225,36.905625,True
Краснодарский край,Темрюкский район,посёлок,Виноградный,45.1924528,36.8975417,True
Краснодарский край,Темрюкский район,посёлок,Волна,45.1247528,36.7091194,True
Краснодарский край,Темрюкский район,посёлок,Волна Революции,45.3310694,36.9435889,True
Краснодарский край,Темрюкский район,станица,Вышестеблиевская,45.19556,36.9975,True
Краснодарский край,Темрюкский район,посёлок,Гаркуша,45.31944,36.85111,True
Краснодарский край,Темрюкский район,станица,Голубицкая,45.32056,37.27583,True
Краснодарский край,Темрюкский район,посёлок,За Родину,45.3500778,37.1035222,True
Краснодарский край,Темрюкский район,посёлок,Закубанский,45.1904556,37.4156417,True
Краснодарский край,Темрюкский район,станица,Запорожская,45.37889,36.86639,True
Краснодарский край,Темрюкский район,посёлок,Ильич,45.42167,36.77167,True
Краснодарский край,Темрюкский район,посёлок,Красноармейский,45.3952444,36.8720083,True
Краснодарский край,Темрюкский район,посёлок,Красный Октябрь,45.19389,37.66444,True
Краснодарский край,Темрюкский район,станица,Курчанская,45.21667,37.56667,True
Краснодарский край,Темрюкский район,посёлок,Кучугуры,45.40833,36.95333,True
Краснодарский край,Темрюкский район,посёлок,Октябрьский,45.2514528,37.3225194,True
Краснодарский край,Темрюкский район,посёлок,Ордынский,45.3378222,37.6607889,True
Краснодарский край,Темрюкский район,хутор,Орехов Кут,45.2370639,37.3690361,True
Краснодарский край,Темрюкский район,посёлок,Пересыпь,45.3473139,37.1345,True
Краснодарский край,Темрюкский район,посёлок,Приазовский,45.4410389,36.8372833,True
Краснодарский край,Темрюкский район,посёлок,Приморский,45.2635361,36.9110861,True
Краснодарский край,Темрюкский район,посёлок,Прогресс,45.1652417,36.8364194,True
Краснодарский край,Темрюкский район,посёлок,Светлый Путь Ленина,45.20139,37.65583,True
Краснодарский край,Темрюкский район,посёлок,Сенной,45.28417,36.99083,True
Краснодарский край,Темрюкский район,посёлок,Солёный,45.2660917,37.0298583,True
Краснодарский край,Темрюкский район,станица,Старотитаровская,45.22194,37.14639,True
Краснодарский край,Темрюкский район,посёлок,Стрелка,45.20639,37.28583,True
Краснодарский край,Темрюкский район,посёлок,Таманский,45.1461361,36.7848444,True
Краснодарский край,Темрюкский район,станица,Тамань,45.215715,36.718915,True
Краснодарский край,Темрюкский район,город,Темрюк,45.26667,37.38333,True
Краснодарский край,Темрюкский район,станица,Фонталовская,45.36389,36.93472,True
Краснодарский край,Темрюкский район,посёлок,Чушка,45.33056,36.66667,True
Краснодарский край,Темрюкский район,посёлок,Юбилейный,45.3310722,36.9814972,True
Краснодарский край,Темрюкский район,посёлок,Южный Склон,45.20639,37.48861,True
Краснодарский край,Тимашёвский район,хутор,Барыбинский,45.68778,39.05222,True
Краснодарский край,Тимашёвский район,хутор,Беднягина,45.52028,38.99028,True
Краснодарский край,Тимашёвский район,хутор,Большевик,45.4579611,39.1181861,True
Краснодарский край,Тимашёвский район,хутор,Греблянский,45.67972,39.06389,True
Краснодарский край,Тимашёвский район,хутор,Дербентский,45.50472,38.94722,True
Краснодарский край,Тимашёвский район,хутор,Димитрова,45.6688583,38.81845,True
Краснодарский край,Тимашёвский район,станица,Днепровская,45.61667,38.8,True
Краснодарский край,Тимашёвский район,хутор,Калинина,45.6693639,38.8719306,True
Краснодарский край,Тимашёвский район,хутор,Карла Маркса,45.7074889,38.8158472,True
Краснодарский край,Тимашёвский район,посёлок,Кирпичный,45.65389,38.88583,True
Краснодарский край,Тимашёвский район,посёлок,Комсомольский,45.55555,38.7661556,True
Краснодарский край,Тимашёвский район,хутор,Красноармейский,45.658325,39.1085222,True
Краснодарский край,Тимашёвский район,посёлок,Красноармейский,45.5871556,38.6644667,True
Краснодарский край,Тимашёвский район,посёлок,Красный,45.536,38.728,True
Краснодарский край,Тимашёвский район,хутор,Красный,45.69139,38.77694,True
Краснодарский край,Тимашёвский район,хутор,Крупской,45.6579611,38.8411472,True
Краснодарский край,Тимашёвский район,хутор,Кубанский,45.6762639,38.8030306,True
Краснодарский край,Тимашёвский район,хутор,Ленина,45.6826861,38.8399417,True
Краснодарский край,Тимашёвский район,хутор,Ленинский,45.4057361,39.0709917,True
Краснодарский край,Тимашёвский район,хутор,Ленинский,45.675,39.03444,True
Краснодарский край,Тимашёвский район,хутор,Лютых,45.5098722,38.9581917,True
Краснодарский край,Тимашёвский район,станица,Медвёдовская,45.45361,39.01306,True
Краснодарский край,Тимашёвский район,хутор,Мирный,45.5480167,38.8950083,True
Краснодарский край,Тимашёвский район,хутор,Можарийский,45.7281528,39.169325,True
Краснодарский край,Тимашёвский район,хутор,Незаймановский,45.71944,39.30222,True
Краснодарский край,Тимашёвский район,хутор,Некрасова,45.70806,38.85806,True
Краснодарский край,Тимашёвский район,станица,Новокорсунская,45.64111,39.14028,True
Краснодарский край,Тимашёвский район,хутор,Новый,45.70444,39.03583,True
Краснодарский край,Тимашёвский район,посёлок,Новый,45.57278,38.71083,True
Краснодарский край,Тимашёвский район,посёлок,Октябрьский,45.6037361,38.6773556,True
Краснодарский край,Тимашёвский район,хутор,Ольховский,45.62833,38.88472,True
Краснодарский край,Тимашёвский район,хутор,Привокзальный,45.7558917,38.7685333,True
Краснодарский край,Тимашёвский район,хутор,Причтовый,45.7564278,38.750944,True
Краснодарский край,Тимашёвский район,хутор,Рашпиль,45.6627833,39.0566278,True
Краснодарский край,Тимашёвский район,станица,Роговская,45.73444,38.74028,True
Краснодарский край,Тимашёвский район,хутор,Садовый,45.5128528,38.9354639,True
Краснодарский край,Тимашёвский район,посёлок,Советский,45.5384639,38.7878917,True
Краснодарский край,Тимашёвский район,хутор,Стринский,45.71944,39.20806,True
Краснодарский край,Тимашёвский район,хутор,Танцура-Крамаренко,45.52111,38.93528,True
Краснодарский край,Тимашёвский район,город,Тимашёвск,45.61667,38.93333,True
Краснодарский край,Тимашёвский район,хутор,Тополи,45.54278,38.96444,True
Краснодарский край,Тихорецкий район,станица,Алексеевская,45.76667,40.15,True
Краснодарский край,Тихорецкий район,станица,Архангельская,45.67556,40.28083,True
Краснодарский край,Тихорецкий район,хутор,Атаманка,45.802552,40.242131,True
Краснодарский край,Тихорецкий район,посёлок ж.д. разъезда,Ачкасово,45.8556833,40.2275667,True
Краснодарский край,Тихорецкий район,посёлок,Большевик,45.7763639,40.191806,True
Краснодарский край,Тихорецкий район,посёлок,Братский,46.0338444,40.10833,True
Краснодарский край,Тихорецкий район,посёлок,Восточный,45.8301056,40.1520611,True
Краснодарский край,Тихорецкий район,посёлок ж.д. разъезда,Вперёд,45.9057972,40.4689222,True
Краснодарский край,Тихорецкий район,станица,Еремизино-Борисовская,45.70861,40.49,True
Краснодарский край,Тихорецкий район,посёлок,Западный,46.00861,40.07944,True
Краснодарский край,Тихорецкий район,посёлок,Западный,45.833111,40.1401917,True
Краснодарский край,Тихорецкий район,посёлок,Зелёный,45.8335583,40.3008,True
Краснодарский край,Тихорецкий район,хутор,Казаче-Борисовский,45.7159028,40.3822333,True
Краснодарский край,Тихорецкий район,хутор,Карасёв,45.6425806,40.358472,True
Краснодарский край,Тихорецкий район,посёлок,Кирпичный,45.78861,40.15306,True
Краснодарский край,Тихорецкий район,станица,Краснооктябрьская,45.8010028,40.0892028,True
Краснодарский край,Тихорецкий район,хутор,Красный,45.6156972,40.356375,True
Краснодарский край,Тихорецкий район,посёлок,Красный Борец,45.9875028,40.1580861,True
Краснодарский край,Тихорецкий район,хутор,Красный Партизан,45.7437583,40.2242167,True
Краснодарский край,Тихорецкий район,хутор,Криница,45.946528,40.06715,True
Краснодарский край,Тихорецкий район,посёлок,Крутой,45.87222,40.2341083,True
Краснодарский край,Тихорецкий район,хутор,Культура,45.6335472,40.3844111,True
Краснодарский край,Тихорецкий район,хутор,Латыши,46.0361972,40.1846361,True
Краснодарский край,Тихорецкий район,хутор,Ленинский,45.5955611,40.4397722,True
Краснодарский край,Тихорецкий район,хутор,Ленинское Возрождение,45.9734222,40.1607694,True
Краснодарский край,Тихорецкий район,посёлок,Малороссийский,45.7059333,40.2838833,True
Краснодарский край,Тихорецкий район,посёлок,Мирный,45.9989056,40.1048806,True
Краснодарский край,Тихорецкий район,хутор,Москальчук,45.78694,40.15861,True
Краснодарский край,Тихорецкий район,хутор,Нехворощанский,45.5946806,40.4317389,True
Краснодарский край,Тихорецкий район,станица,Новоархангельская,45.76889,40.18944,True
Краснодарский край,Тихорецкий район,станица,Новорождественская,45.86583,39.9525,True
Краснодарский край,Тихорецкий район,станица,Новоромановская,45.93861,40.34444,True
Краснодарский край,Тихорецкий район,посёлок,Овощной отделения № 2 совхоза «Челбасский»,45.8392,40.054475,True
Краснодарский край,Тихорецкий район,станица,Отрадная,45.6090889,40.1233361,True
Краснодарский край,Тихорецкий район,посёлок,Парковый,45.8387389,40.1516083,True
Краснодарский край,Тихорецкий район,посёлок,Полевой,45.8018389,40.2627333,True
Краснодарский край,Тихорецкий район,посёлок ж.д. станции,Порошинская,45.8737917,40.3729889,True
Краснодарский край,Тихорецкий район,хутор,Привольный,45.7088694,40.3908361,True
Краснодарский край,Тихорецкий район,посёлок,Пригородный,45.81139,40.11028,True
Краснодарский край,Тихорецкий район,посёлок,Садовый,45.83572,40.230527,True
Краснодарский край,Тихорецкий район,посёлок,Советский,45.9884417,40.0735611,True
Краснодарский край,Тихорецкий район,посёлок,Степной,45.9040611,40.2767611,True
Краснодарский край,Тихорецкий район,станица,Терновская,45.85,40.4,True
Краснодарский край,Тихорецкий район,хутор,Тихонький,45.942639,40.059325,True
Краснодарский край,Тихорецкий район,хутор,Украинский,45.6333278,40.5351833,True
Краснодарский край,Тихорецкий район,посёлок,Урожайный,45.9232972,40.2771722,True
Краснодарский край,Тихорецкий район,хутор,Усть-Джигутинка,45.7888083,40.2121472,True
Краснодарский край,Тихорецкий район,станица,Фастовецкая,45.91722,40.15417,True
Краснодарский край,Тихорецкий район,хутор,Федоренко,45.621056,40.4045861,True
Краснодарский край,Тихорецкий район,станица,Хопёрская,45.64333,40.41389,True
Краснодарский край,Тихорецкий район,посёлок,Челбас,45.811225,39.9904972,True
Краснодарский край,Тихорецкий район,хутор,Челбас,45.6281361,40.402389,True
Краснодарский край,Тихорецкий район,хутор,Чкалова,45.6126778,40.4219917,True
Краснодарский край,Тихорецкий район,хутор,Школьный,45.79056,40.12528,True
Краснодарский край,Тихорецкий район,посёлок,Шоссейный,45.82744,40.191732,True
Краснодарский край,Тихорецкий район,станица,Юго-Северная,45.7598917,40.2428556,True
Краснодарский край,Тихорецкий район,посёлок,Южный,45.984056,40.1096333,True
Краснодарский край,Туапсинский район,село,Агой,44.143703,39.037588,True
Краснодарский край,Туапсинский район,аул,Агуй-Шапсуг,44.18515,39.069025,True
Краснодарский край,Туапсинский район,хутор,Алтубинал,44.18,39.49194,True
Краснодарский край,Туапсинский район,село,Анастасиевка,44.17056,39.28194,True
Краснодарский край,Туапсинский район,хутор,Афанасьевский Постик,44.4275,39.15722,True
Краснодарский край,Туапсинский район,посёлок,База Отдыха «Ласточка»,44.22889,38.86639,True
Краснодарский край,Туапсинский район,село,Бжид,44.34755,38.6647,True
Краснодарский край,Туапсинский район,аул,Большое Псеушхо,44.07667,39.34167,True
Краснодарский край,Туапсинский район,село,Вольное,44.08083,39.11472,True
Краснодарский край,Туапсинский район,село,Георгиевское,44.16389,39.25,True
Краснодарский край,Туапсинский район,село,Гойтх,44.24639,39.37417,True
Краснодарский край,Туапсинский район,посёлок,Горный,44.28333,39.27778,True
Краснодарский край,Туапсинский район,село,Горское,44.3875,38.72833,True
Краснодарский край,Туапсинский район,хутор,Греческий,44.14528,39.17472,True
Краснодарский край,Туапсинский район,село,Гунайка Первая,44.31722,39.38,True
Краснодарский край,Туапсинский район,село,Гунайка Четвёртая,44.275,39.43972,True
Краснодарский край,Туапсинский район,село,Дедеркой,44.05417,39.12917,True
Краснодарский край,Туапсинский район,село,Дефановка,44.42972,38.78139,True
Краснодарский край,Туапсинский район,курортный посёлок,Джубга,44.318337,38.700412,True
Краснодарский край,Туапсинский район,село,Дзеберкой,44.07167,39.11361,True
Краснодарский край,Туапсинский район,посёлок,Дома Отдыха «Кубань»,44.19278,38.89444,True
Краснодарский край,Туапсинский район,село,Заречье,44.1175,39.12194,True
Краснодарский край,Туапсинский район,село,Индюк,44.23333,39.24667,True
Краснодарский край,Туапсинский район,хутор,Крайняя Щель,44.35139,39.19639,True
Краснодарский край,Туапсинский район,село,Красное,44.14361,39.15194,True
Краснодарский край,Туапсинский район,село,Кроянское,44.08972,39.12278,True
Краснодарский край,Туапсинский район,село,Кирпичное,44.16722,39.20278,True
Краснодарский край,Туапсинский район,село,Кривенковское,44.190426,39.236019,True
Краснодарский край,Туапсинский район,хутор,Лермонтово,44.30389,38.74944,True
Краснодарский край,Туапсинский район,аул,Малое Псеушхо,44.11667,39.30306,True
Краснодарский край,Туапсинский район,посёлок,Майский,44.17361,38.95389,True
Краснодарский край,Туапсинский район,село,Мессажай,44.14,39.12167,True
Краснодарский край,Туапсинский район,село,Молдавановка,44.46694,38.87722,True
Краснодарский край,Туапсинский район,село,Навагинское,44.37167,39.35111,True
Краснодарский край,Туапсинский район,село,Небуг,44.17222,39.00278,True
Краснодарский край,Туапсинский район,курортный посёлок,Новомихайловский,44.252599,38.850235,True
Краснодарский край,Туапсинский район,посёлок,Октябрьский,44.32222,39.34083,True
Краснодарский край,Туапсинский район,село,Ольгинка,44.20194,38.88944,True
Краснодарский край,Туапсинский район,хутор,Островская Щель,44.27639,39.29306,True
Краснодарский край,Туапсинский район,посёлок,пансионата «Весна»,44.07444,39.09806,True
Краснодарский край,Туапсинский район,посёлок,пансионата «Гизельдере»,44.07056,39.11861,True
Краснодарский край,Туапсинский район,посёлок,пансионата «Небуг»,44.16639,38.98722,True
Краснодарский край,Туапсинский район,посёлок,пансионата «Ольгинка»,44.20833,38.89083,True
Краснодарский край,Туапсинский район,посёлок,пансионата «Южный»,44.06361,39.11722,True
Краснодарский край,Туапсинский район,хутор,Папоротный,44.23556,39.3875,True
Краснодарский край,Туапсинский район,село,Пляхо,44.270799,38.830799,True
Краснодарский край,Туапсинский район,село,Подхребтовое,44.3675,38.96278,True
Краснодарский край,Туапсинский район,хутор,Полковничий,44.41689,38.720609,True
Краснодарский край,Туапсинский район,посёлок,Пригородный,44.12194,39.1225,True
Краснодарский край,Туапсинский район,аул,Псебе,44.285474,38.95767,True
Краснодарский край,Туапсинский район,село,Садовое,44.3875,39.17,True
Краснодарский край,Туапсинский район,посёлок,санатория «Агрия»,44.2025,38.86806,True
Краснодарский край,Туапсинский район,посёлок,санатория «Черноморье»,44.21472,38.86,True
Краснодарский край,Туапсинский район,посёлок,Сосновый,44.17694,38.94361,True
Краснодарский край,Туапсинский район,посёлок,спортлагеря «Электрон»,44.18444,38.92778,True
Краснодарский край,Туапсинский район,село,Тенгинка,44.324845,38.784444,True
Краснодарский край,Туапсинский район,село,Терзиян,44.21056,39.42778,True
Краснодарский край,Туапсинский район,посёлок,турбазы «Приморская»,44.23528,38.84139,True
Краснодарский край,Туапсинский район,посёлок,Тюменский,44.18333,38.975,True
Краснодарский край,Туапсинский район,посёлок,Холодный Родник,44.12222,39.13889,True
Краснодарский край,Туапсинский район,село,Цыпка,44.15667,39.17778,True
Краснодарский край,Туапсинский район,село,Шаумян,44.32222,39.29167,True
Краснодарский край,Туапсинский район,село,Шепси,44.03889,39.15,True
Краснодарский край,Туапсинский район,хутор,Шубинка,44.37528,39.40111,True
Краснодарский край,Успенский район,хутор,Белецкий,44.8020389,41.4700917,True
Краснодарский край,Успенский район,хутор,Весёлый,44.8512611,41.496775,True
Краснодарский край,Успенский район,село,Вольное,44.954517,41.20506,True
Краснодарский край,Успенский район,хутор,Вольность,44.7732861,41.5748583,True
Краснодарский край,Успенский район,хутор,Воронежский,44.6571972,41.3239861,True
Краснодарский край,Успенский район,хутор,Державный,44.8521889,41.4288028,True
Краснодарский край,Успенский район,посёлок,Дивный,44.9328306,41.1684222,True
Краснодарский край,Успенский район,хутор,Западный,44.8811722,41.3589417,True
Краснодарский край,Успенский район,посёлок,Заречный,44.9519111,41.174975,True
Краснодарский край,Успенский район,хутор,Карс,44.7952361,41.5738111,True
Краснодарский край,Успенский район,село,Коноково,44.861795,41.325685,True
Краснодарский край,Успенский район,аул,Коноковский,44.715817,41.272308,True
Краснодарский край,Успенский район,аул,Кургоковский,44.839722,41.486389,True
Краснодарский край,Успенский район,посёлок,Лесной,44.851225,41.4810056,True
Краснодарский край,Успенский район,хутор,Лок,44.7329361,41.511725,True
Краснодарский край,Успенский район,село,Маламино,44.82917,41.51583,True
Краснодарский край,Успенский район,село,Марьино,44.898616,41.26944,True
Краснодарский край,Успенский район,посёлок,Мичуринский,44.77778,41.48667,True
Краснодарский край,Успенский район,станица,Николаевская,44.86361,41.57806,True
Краснодарский край,Успенский район,хутор,Новенький,44.9858222,41.2062472,True
Краснодарский край,Успенский район,село,Новоурупское,44.6425,41.34528,True
Краснодарский край,Успенский район,село,Пантелеймоновское,44.62417,41.36722,True
Краснодарский край,Успенский район,хутор,Первокубанский,44.8362611,41.598525,True
Краснодарский край,Успенский район,хутор,Подковский,44.73417,41.47194,True
Краснодарский край,Успенский район,хутор,Приозёрный,44.9896222,41.3601028,True
Краснодарский край,Успенский район,хутор,Серединский,44.96139,41.43417,True
Краснодарский край,Успенский район,село,Трёхсельское,44.675896,41.306625,True
Краснодарский край,Успенский район,станица,Убеженская,44.91389,41.28611,True
Краснодарский край,Успенский район,хутор,Украинский,44.80861,41.34278,True
Краснодарский край,Успенский район,аул,Урупский,44.73941,41.249852,True
Краснодарский край,Успенский район,хутор,Успенский,44.73611,41.46306,True
Краснодарский край,Успенский район,село,Успенское,44.834503,41.383744,True
Краснодарский край,Усть-Лабинский район,хутор,Александровский,45.25,40.05,True
Краснодарский край,Усть-Лабинский район,хутор,Аргатов,45.3245306,39.6285,True
Краснодарский край,Усть-Лабинский район,хутор,Безлесный,45.41556,39.99028,True
Краснодарский край,Усть-Лабинский район,хутор,Болгов,45.22778,39.90139,True
Краснодарский край,Усть-Лабинский район,хутор,Братский,45.23333,39.95556,True
Краснодарский край,Усть-Лабинский район,посёлок,Вимовец,45.3075,39.89639,True
Краснодарский край,Усть-Лабинский район,станица,Воронежская,45.2125,39.56694,True
Краснодарский край,Усть-Лабинский район,станица,Восточная,45.36667,39.76667,True
Краснодарский край,Усть-Лабинский район,посёлок,Двубратский,45.26417,39.78722,True
Краснодарский край,Усть-Лабинский район,хутор,Железный,45.29667,39.56028,True
Краснодарский край,Усть-Лабинский район,посёлок,Заречный,45.18833,39.71833,True
Краснодарский край,Усть-Лабинский район,хутор,Кадухин,45.1879417,39.8065667,True
Краснодарский край,Усть-Лабинский район,хутор,Калининский,45.20278,40.06694,True
Краснодарский край,Усть-Лабинский район,станица,Кирпильская,45.37583,39.69778,True
Краснодарский край,Усть-Лабинский район,хутор,Красный,45.29389,39.98639,True
Краснодарский край,Усть-Лабинский район,хутор,Кубанский,45.20389,39.75,True
Краснодарский край,Усть-Лабинский район,станица,Ладожская,45.30361,39.93639,True
Краснодарский край,Усть-Лабинский район,хутор,Неелинский,45.2825,39.96417,True
Краснодарский край,Усть-Лабинский район,станица,Некрасовская,45.1425,39.75,True
Краснодарский край,Усть-Лабинский район,хутор,Новоекатериновка,45.24417,39.93639,True
Краснодарский край,Усть-Лабинский район,станица,Новолабинская,45.11667,39.88333,True
Краснодарский край,Усть-Лабинский район,хутор,Новониколаевка,45.3,40.02972,True
Краснодарский край,Усть-Лабинский район,хутор,Новосёловка,45.26667,39.93306,True
Краснодарский край,Усть-Лабинский район,хутор,Огонёк,45.17556,39.69306,True
Краснодарский край,Усть-Лабинский район,хутор,Потаенный,45.35639,40.04139,True
Краснодарский край,Усть-Лабинский район,хутор,Пятихатский,45.25333,40.02306,True
Краснодарский край,Усть-Лабинский район,хутор,Саратовский,45.20528,39.98861,True
Краснодарский край,Усть-Лабинский район,хутор,Свободный,45.34944,39.52944,True
Краснодарский край,Усть-Лабинский район,хутор,Северский,45.22639,39.91722,True
Краснодарский край,Усть-Лабинский район,хутор,Семёнов,45.22028,39.92639,True
Краснодарский край,Усть-Лабинский район,хутор,Семёновка,45.32639,40.04194,True
Краснодарский край,Усть-Лабинский район,хутор,Согласный,45.23361,39.97778,True
Краснодарский край,Усть-Лабинский район,хутор,Сокольский,45.34972,39.605,True
Краснодарский край,Усть-Лабинский район,село,Суворовское,45.28333,39.45,True
Краснодарский край,Усть-Лабинский район,станица,Тенгинская,45.10083,40.01667,True
Краснодарский край,Усть-Лабинский район,город,Усть-Лабинск,45.21528,39.68944,True
Краснодарский край,Усть-Лабинский район,хутор,Финогеновский,45.25,39.99972,True
Краснодарский край,Усть-Лабинский район,хутор,Херсонский,45.21917,39.97056,True
Краснодарский край,Усть-Лабинский район,посёлок,Южный,45.3580889,39.8394944,True
Краснодарский край,Щербиновский район,посёлок,Восточный,46.6259972,38.5541972,True
Краснодарский край,Щербиновский район,село,Глафировка,46.7603472,38.4096889,True
Краснодарский край,Щербиновский район,село,Ейское Укрепление,46.7,38.6,True
Краснодарский край,Щербиновский район,село,Екатериновка,46.69167,38.75417,True
Краснодарский край,Щербиновский район,хутор,Красный Дар,46.6725528,38.8447083,True
Краснодарский край,Щербиновский район,хутор,Любимов,46.8127111,38.7708528,True
Краснодарский край,Щербиновский район,хутор,Молчановка,46.86389,38.61333,True
Краснодарский край,Щербиновский район,село,Николаевка,46.7305472,38.5795778,True
Краснодарский край,Щербиновский район,станица,Новощербиновская,46.47694,38.64944,True
Краснодарский край,Щербиновский район,хутор,Новый Путь,46.8182583,38.8784667,True
Краснодарский край,Щербиновский район,посёлок,Прилиманский,46.6400611,38.4878722,True
Краснодарский край,Щербиновский район,посёлок,Северный,46.6474833,38.5260361,True
Краснодарский край,Щербиновский район,станица,Старощербиновская,46.63056,38.66667,True
Краснодарский край,Щербиновский район,село,Шабельское,46.8493944,38.4676694,True
Краснодарский край,Щербиновский район,посёлок,Щербиновский,46.6299861,38.5081833,True